cost_center,ccs,address,city,latitude,longitude,franchise,franchise_brand,display_brand,op_status,division_name,tactic_division_name,distance,country,url,services
6000939,0,2222 BOUL. WALBERG,DOLBEAU-MISTASSINI,48.8837600,-72.2492450,0,,Couche-Tard,OPEN,quebec,quebec,242.0465785220912,CA,/store-locator/CA/dolbeau-mistassini/2222-boul-walberg/6000939,"[{'name': 'gas', 'display_name': 'Gas', 'icon': 'gas'}, {'name': 'diesel', 'display_name': 'Diesel', 'icon': 'diesel'}, {'name': 'public_restrooms', 'display_name': 'Public Restrooms', 'icon': 'public_restrooms'}, {'name': 'coffee', 'display_name': 'Coffee', 'icon': 'coffee'}, {'name': 'froster', 'display_name': 'Froster', 'icon': 'froster'}, {'name': 'sloche', 'display_name': 'Sloche', 'icon': 'sloche'}]"
6000908,0,1721 BOUL. WALLBERG,DOLBEAU,48.8813740,-72.2323170,0,,Couche-Tard,OPEN,quebec,quebec,242.0858040675923,CA,/store-locator/CA/dolbeau/1721-boul-wallberg/6000908,"[{'name': 'gas', 'display_name': 'Gas', 'icon': 'gas'}, {'name': 'public_restrooms', 'display_name': 'Public Restrooms', 'icon': 'public_restrooms'}, {'name': 'coffee', 'display_name': 'Coffee', 'icon': 'coffee'}, {'name': 'pastries', 'display_name': 'Pastries', 'icon': 'pastries'}, {'name': 'hotdog', 'display_name': 'Hotdog', 'icon': 'hotdog'}]"
6000951,0,40 RUE DEQUEN,DOLBEAU-MISTASSINI,48.8899540,-72.2070010,0,,Couche-Tard,OPEN,quebec,quebec,242.95513571331904,CA,/store-locator/CA/dolbeau-mistassini/40-rue-dequen/6000951,"[{'name': 'gas', 'display_name': 'Gas', 'icon': 'gas'}, {'name': 'diesel', 'display_name': 'Diesel', 'icon': 'diesel'}, {'name': 'public_restrooms', 'display_name': 'Public Restrooms', 'icon': 'public_restrooms'}, {'name': 'coffee', 'display_name': 'Coffee', 'icon': 'coffee'}, {'name': 'froster', 'display_name': 'Froster', 'icon': 'froster'}, {'name': 'sloche', 'display_name': 'Sloche', 'icon': 'sloche'}, {'name': 'fresh_food_fast', 'display_name': 'Fresh Food Fast', 'icon': 'food'}, {'name': 'pastries', 'display_name': 'Pastries', 'icon': 'pastries'}, {'name': 'hotdog', 'display_name': 'Hotdog', 'icon': 'hotdog'}]"
6000953,0,196 RUE HOTEL-DE-VILLE,RIVIERE-DU-LOUP,47.8343470,-69.5395780,0,,Couche-Tard,OPEN,quebec,quebec,248.47596179408197,CA,/store-locator/CA/riviere-du-loup/196-rue-hotel-de-ville/6000953,"[{'name': 'gas', 'display_name': 'Gas', 'icon': 'gas'}, {'name': 'diesel', 'display_name': 'Diesel', 'icon': 'diesel'}, {'name': 'public_restrooms', 'display_name': 'Public Restrooms', 'icon': 'public_restrooms'}, {'name': 'coffee', 'display_name': 'Coffee', 'icon': 'coffee'}, {'name': 'froster', 'display_name': 'Froster', 'icon': 'froster'}, {'name': 'sloche', 'display_name': 'Sloche', 'icon': 'sloche'}, {'name': 'pastries', 'display_name': 'Pastries', 'icon': 'pastries'}, {'name': 'hotdog', 'display_name': 'Hotdog', 'icon': 'hotdog'}]"
6000950,0,446 LAFONTAINE,RIVIERE-DU-LOUP,47.8293380,-69.5332640,0,,Couche-Tard,OPEN,quebec,quebec,248.4879041849151,CA,/store-locator/CA/riviere-du-loup/446-lafontaine/6000950,"[{'name': 'gas', 'display_name': 'Gas', 'icon': 'gas'}, {'name': 'public_restrooms', 'display_name': 'Public Restrooms', 'icon': 'public_restrooms'}, {'name': 'coffee', 'display_name': 'Coffee', 'icon': 'coffee'}, {'name': 'froster', 'display_name': 'Froster', 'icon': 'froster'}, {'name': 'sloche', 'display_name': 'Sloche', 'icon': 'sloche'}]"
6000507,0,960 ROUTE DES ROCHES,ST-ANTONIN,47.7604400,-69.4325690,0,,Couche-Tard,OPEN,quebec,quebec,249.2453853494684,CA,/store-locator/CA/st-antonin/960-route-des-roches/6000507,"[{'name': 'gas', 'display_name': 'Gas', 'icon': 'gas'}, {'name': 'diesel', 'display_name': 'Diesel', 'icon': 'diesel'}, {'name': 'public_restrooms', 'display_name': 'Public Restrooms', 'icon': 'public_restrooms'}, {'name': 'coffee', 'display_name': 'Coffee', 'icon': 'coffee'}, {'name': 'froster', 'display_name': 'Froster', 'icon': 'froster'}, {'name': 'sloche', 'display_name': 'Sloche', 'icon': 'sloche'}]"
6000668,0,1892 AVENUE DE LA MADAWASKA,DEGELIS,47.4878220,-68.4831580,0,,Couche-Tard,OPEN,quebec,quebec,276.1252983377496,CA,/store-locator/CA/degelis/1892-avenue-de-la-madawaska/6000668,"[{'name': 'gas', 'display_name': 'Gas', 'icon': 'gas'}, {'name': 'diesel', 'display_name': 'Diesel', 'icon': 'diesel'}, {'name': 'public_restrooms', 'display_name': 'Public Restrooms', 'icon': 'public_restrooms'}, {'name': 'coffee', 'display_name': 'Coffee', 'icon': 'coffee'}, {'name': 'froster', 'display_name': 'Froster', 'icon': 'froster'}, {'name': 'sloche', 'display_name': 'Sloche', 'icon': 'sloche'}]"
6002119,0,191 RUE VICTORIA,EDMUNSTON,47.3694420,-68.3238750,0,,Couche-Tard,OPEN,quebec,quebec,279.20155637943276,CA,/store-locator/CA/edmunston/191-rue-victoria/6002119,"[{'name': 'gas', 'display_name': 'Gas', 'icon': 'gas'}, {'name': 'diesel', 'display_name': 'Diesel', 'icon': 'diesel'}, {'name': 'public_restrooms', 'display_name': 'Public Restrooms', 'icon': 'public_restrooms'}, {'name': 'coffee', 'display_name': 'Coffee', 'icon': 'coffee'}, {'name': 'froster', 'display_name': 'Froster', 'icon': 'froster'}, {'name': 'sloche', 'display_name': 'Sloche', 'icon': 'sloche'}]"
6002045,0,195 BROADWAY STREET,WOODSTOCK,46.1422000,-67.5825920,0,,Couche-Tard,OPEN,quebec,quebec,292.0326805981987,CA,/store-locator/CA/woodstock/195-broadway-street/6002045,"[{'name': 'gas', 'display_name': 'Gas', 'icon': 'gas'}, {'name': 'public_restrooms', 'display_name': 'Public Restrooms', 'icon': 'public_restrooms'}, {'name': 'coffee', 'display_name': 'Coffee', 'icon': 'coffee'}, {'name': 'froster', 'display_name': 'Froster', 'icon': 'froster'}, {'name': 'sloche', 'display_name': 'Sloche', 'icon': 'sloche'}]"
6002014,0,121 ROUTE 255,ST-ANDRE,47.0779800,-67.7676200,0,,Couche-Tard,OPEN,quebec,quebec,295.86340421581457,CA,/store-locator/CA/st-andre/121-route-255/6002014,"[{'name': 'gas', 'display_name': 'Gas', 'icon': 'gas'}, {'name': 'diesel', 'display_name': 'Diesel', 'icon': 'diesel'}, {'name': 'public_restrooms', 'display_name': 'Public Restrooms', 'icon': 'public_restrooms'}, {'name': 'coffee', 'display_name': 'Coffee', 'icon': 'coffee'}, {'name': 'froster', 'display_name': 'Froster', 'icon': 'froster'}, {'name': 'sloche', 'display_name': 'Sloche', 'icon': 'sloche'}, {'name': 'hotdog', 'display_name': 'Hotdog', 'icon': 'hotdog'}]"
6000949,0,24 ROUTE 138,FORESTVILLE,48.7376560,-69.0892940,0,,Couche-Tard,OPEN,quebec,quebec,304.2922812544141,CA,/store-locator/CA/forestville/24-route-138/6000949,"[{'name': 'gas', 'display_name': 'Gas', 'icon': 'gas'}, {'name': 'diesel', 'display_name': 'Diesel', 'icon': 'diesel'}, {'name': 'public_restrooms', 'display_name': 'Public Restrooms', 'icon': 'public_restrooms'}, {'name': 'coffee', 'display_name': 'Coffee', 'icon': 'coffee'}, {'name': 'froster', 'display_name': 'Froster', 'icon': 'froster'}, {'name': 'sloche', 'display_name': 'Sloche', 'icon': 'sloche'}]"
6000952,0,14 ROUTE 138 C.P. 1258,FORESTVILLE,48.7382130,-69.0884160,0,,Couche-Tard,OPEN,quebec,quebec,304.3461531533668,CA,/store-locator/CA/forestville/14-route-138-c-p-1258/6000952,"[{'name': 'gas', 'display_name': 'Gas', 'icon': 'gas'}, {'name': 'public_restrooms', 'display_name': 'Public Restrooms', 'icon': 'public_restrooms'}, {'name': 'coffee', 'display_name': 'Coffee', 'icon': 'coffee'}, {'name': 'froster', 'display_name': 'Froster', 'icon': 'froster'}, {'name': 'sloche', 'display_name': 'Sloche', 'icon': 'sloche'}]"
6002135,0,5 ROAD 170,ST STEPHEN,45.2063180,-67.2710590,0,,Couche-Tard,OPEN,quebec,quebec,309.29983189841005,CA,/store-locator/CA/st-stephen/5-road-170/6002135,"[{'name': 'gas', 'display_name': 'Gas', 'icon': 'gas'}, {'name': 'diesel', 'display_name': 'Diesel', 'icon': 'diesel'}, {'name': 'public_restrooms', 'display_name': 'Public Restrooms', 'icon': 'public_restrooms'}, {'name': 'coffee', 'display_name': 'Coffee', 'icon': 'coffee'}, {'name': 'froster', 'display_name': 'Froster', 'icon': 'froster'}, {'name': 'sloche', 'display_name': 'Sloche', 'icon': 'sloche'}, {'name': 'hotdog', 'display_name': 'Hotdog', 'icon': 'hotdog'}]"
6000920,0,355 JESSOP,RIMOUSKI,48.4628260,-68.5168560,0,,Couche-Tard,OPEN,quebec,quebec,310.59807525367404,CA,/store-locator/CA/rimouski/355-jessop/6000920,"[{'name': 'gas', 'display_name': 'Gas', 'icon': 'gas'}, {'name': 'diesel', 'display_name': 'Diesel', 'icon': 'diesel'}, {'name': 'public_restrooms', 'display_name': 'Public Restrooms', 'icon': 'public_restrooms'}, {'name': 'coffee', 'display_name': 'Coffee', 'icon': 'coffee'}, {'name': 'froster', 'display_name': 'Froster', 'icon': 'froster'}, {'name': 'sloche', 'display_name': 'Sloche', 'icon': 'sloche'}]"
6001322,0,355 AVENUE LEONIDAS SUD,RIMOUSKI,48.4565540,-68.5003620,0,,Couche-Tard,OPEN,quebec,quebec,310.9029880047771,CA,/store-locator/CA/rimouski/355-avenue-leonidas-sud/6001322,"[{'name': 'car_wash', 'display_name': 'Car Wash', 'icon': 'car_wash'}, {'name': 'gas', 'display_name': 'Gas', 'icon': 'gas'}, {'name': 'diesel', 'display_name': 'Diesel', 'icon': 'diesel'}, {'name': 'public_restrooms', 'display_name': 'Public Restrooms', 'icon': 'public_restrooms'}, {'name': 'coffee', 'display_name': 'Coffee', 'icon': 'coffee'}, {'name': 'froster', 'display_name': 'Froster', 'icon': 'froster'}, {'name': 'sloche', 'display_name': 'Sloche', 'icon': 'sloche'}, {'name': 'fresh_food_fast', 'display_name': 'Fresh Food Fast', 'icon': 'food'}, {'name': 'pastries', 'display_name': 'Pastries', 'icon': 'pastries'}, {'name': 'hotdog', 'display_name': 'Hotdog', 'icon': 'hotdog'}]"
6002043,0,82 LETETE RD,ST GEORGE,45.1254540,-66.8177740,0,,Couche-Tard,OPEN,quebec,quebec,332.1798599173511,CA,/store-locator/CA/st-george/82-letete-rd/6002043,"[{'name': 'gas', 'display_name': 'Gas', 'icon': 'gas'}, {'name': 'public_restrooms', 'display_name': 'Public Restrooms', 'icon': 'public_restrooms'}, {'name': 'coffee', 'display_name': 'Coffee', 'icon': 'coffee'}, {'name': 'froster', 'display_name': 'Froster', 'icon': 'froster'}, {'name': 'sloche', 'display_name': 'Sloche', 'icon': 'sloche'}, {'name': 'hotdog', 'display_name': 'Hotdog', 'icon': 'hotdog'}]"
6002541,0,1201 HANWELL ROAD,FREDERICTON,45.9467240,-66.6945850,0,,Couche-Tard,OPEN,quebec,quebec,333.7518609015649,CA,/store-locator/CA/fredericton/1201-hanwell-road/6002541,"[{'name': 'gas', 'display_name': 'Gas', 'icon': 'gas'}, {'name': 'diesel', 'display_name': 'Diesel', 'icon': 'diesel'}, {'name': 'public_restrooms', 'display_name': 'Public Restrooms', 'icon': 'public_restrooms'}, {'name': 'coffee', 'display_name': 'Coffee', 'icon': 'coffee'}, {'name': 'froster', 'display_name': 'Froster', 'icon': 'froster'}, {'name': 'sloche', 'display_name': 'Sloche', 'icon': 'sloche'}, {'name': 'hotdog', 'display_name': 'Hotdog', 'icon': 'hotdog'}]"
6002009,0,510 NEW MARYLAND HWY,NEW MARYLAND,45.8854450,-66.6892060,0,,Couche-Tard,OPEN,quebec,quebec,334.00825156419137,CA,/store-locator/CA/new-maryland/510-new-maryland-hwy/6002009,"[{'name': 'gas', 'display_name': 'Gas', 'icon': 'gas'}, {'name': 'diesel', 'display_name': 'Diesel', 'icon': 'diesel'}, {'name': 'public_restrooms', 'display_name': 'Public Restrooms', 'icon': 'public_restrooms'}, {'name': 'coffee', 'display_name': 'Coffee', 'icon': 'coffee'}, {'name': 'froster', 'display_name': 'Froster', 'icon': 'froster'}, {'name': 'sloche', 'display_name': 'Sloche', 'icon': 'sloche'}, {'name': 'hotdog', 'display_name': 'Hotdog', 'icon': 'hotdog'}]"
6002013,0,1169 REGENT STREET,FREDERICTON,45.9386670,-66.6586210,0,,Couche-Tard,OPEN,quebec,quebec,335.4697175631778,CA,/store-locator/CA/fredericton/1169-regent-street/6002013,"[{'name': 'car_wash', 'display_name': 'Car Wash', 'icon': 'car_wash'}, {'name': 'gas', 'display_name': 'Gas', 'icon': 'gas'}, {'name': 'public_restrooms', 'display_name': 'Public Restrooms', 'icon': 'public_restrooms'}, {'name': 'coffee', 'display_name': 'Coffee', 'icon': 'coffee'}, {'name': 'froster', 'display_name': 'Froster', 'icon': 'froster'}, {'name': 'sloche', 'display_name': 'Sloche', 'icon': 'sloche'}, {'name': 'hotdog', 'display_name': 'Hotdog', 'icon': 'hotdog'}]"
6002011,0,95 MAIN STREET,FREDERICTON,45.9806940,-66.6583850,0,,Couche-Tard,OPEN,quebec,quebec,335.5055186802174,CA,/store-locator/CA/fredericton/95-main-street/6002011,"[{'name': 'gas', 'display_name': 'Gas', 'icon': 'gas'}, {'name': 'diesel', 'display_name': 'Diesel', 'icon': 'diesel'}, {'name': 'public_restrooms', 'display_name': 'Public Restrooms', 'icon': 'public_restrooms'}, {'name': 'coffee', 'display_name': 'Coffee', 'icon': 'coffee'}, {'name': 'froster', 'display_name': 'Froster', 'icon': 'froster'}, {'name': 'sloche', 'display_name': 'Sloche', 'icon': 'sloche'}, {'name': 'hotdog', 'display_name': 'Hotdog', 'icon': 'hotdog'}]"
6002007,0,181 KING STREET,FREDERICTON,45.9643330,-66.6488450,0,,Couche-Tard,OPEN,quebec,quebec,335.94911757447295,CA,/store-locator/CA/fredericton/181-king-street/6002007,"[{'name': 'gas', 'display_name': 'Gas', 'icon': 'gas'}, {'name': 'diesel', 'display_name': 'Diesel', 'icon': 'diesel'}, {'name': 'public_restrooms', 'display_name': 'Public Restrooms', 'icon': 'public_restrooms'}, {'name': 'coffee', 'display_name': 'Coffee', 'icon': 'coffee'}, {'name': 'froster', 'display_name': 'Froster', 'icon': 'froster'}, {'name': 'sloche', 'display_name': 'Sloche', 'icon': 'sloche'}, {'name': 'hotdog', 'display_name': 'Hotdog', 'icon': 'hotdog'}]"
6002538,0,623 UNION STREET,FREDERICTON,45.9676130,-66.6289540,0,,Couche-Tard,OPEN,quebec,quebec,336.9022003037177,CA,/store-locator/CA/fredericton/623-union-street/6002538,"[{'name': 'gas', 'display_name': 'Gas', 'icon': 'gas'}, {'name': 'diesel', 'display_name': 'Diesel', 'icon': 'diesel'}, {'name': 'public_restrooms', 'display_name': 'Public Restrooms', 'icon': 'public_restrooms'}, {'name': 'coffee', 'display_name': 'Coffee', 'icon': 'coffee'}, {'name': 'froster', 'display_name': 'Froster', 'icon': 'froster'}, {'name': 'sloche', 'display_name': 'Sloche', 'icon': 'sloche'}]"
6002008,0,536 RIVERSIDE DRIVE,FREDERICTON,45.9390600,-66.6118720,0,,Couche-Tard,OPEN,quebec,quebec,337.707169770774,CA,/store-locator/CA/fredericton/536-riverside-drive/6002008,"[{'name': 'gas', 'display_name': 'Gas', 'icon': 'gas'}, {'name': 'diesel', 'display_name': 'Diesel', 'icon': 'diesel'}, {'name': 'public_restrooms', 'display_name': 'Public Restrooms', 'icon': 'public_restrooms'}, {'name': 'coffee', 'display_name': 'Coffee', 'icon': 'coffee'}, {'name': 'froster', 'display_name': 'Froster', 'icon': 'froster'}, {'name': 'sloche', 'display_name': 'Sloche', 'icon': 'sloche'}, {'name': 'hotdog', 'display_name': 'Hotdog', 'icon': 'hotdog'}]"
6002010,0,253 CANADA STREET,FREDERICTON,45.9792330,-66.5932370,0,,Couche-Tard,OPEN,quebec,quebec,338.61745933342786,CA,/store-locator/CA/fredericton/253-canada-street/6002010,"[{'name': 'gas', 'display_name': 'Gas', 'icon': 'gas'}, {'name': 'diesel', 'display_name': 'Diesel', 'icon': 'diesel'}, {'name': 'public_restrooms', 'display_name': 'Public Restrooms', 'icon': 'public_restrooms'}, {'name': 'coffee', 'display_name': 'Coffee', 'icon': 'coffee'}, {'name': 'froster', 'display_name': 'Froster', 'icon': 'froster'}, {'name': 'sloche', 'display_name': 'Sloche', 'icon': 'sloche'}]"
6002012,0,415 NEVERS ROAD,RUSAGONIS-WAASIS,45.8509860,-66.5611950,0,,Couche-Tard,OPEN,quebec,quebec,340.17662926117,CA,/store-locator/CA/rusagonis-waasis/415-nevers-road/6002012,"[{'name': 'gas', 'display_name': 'Gas', 'icon': 'gas'}, {'name': 'diesel', 'display_name': 'Diesel', 'icon': 'diesel'}, {'name': 'public_restrooms', 'display_name': 'Public Restrooms', 'icon': 'public_restrooms'}, {'name': 'coffee', 'display_name': 'Coffee', 'icon': 'coffee'}, {'name': 'froster', 'display_name': 'Froster', 'icon': 'froster'}, {'name': 'sloche', 'display_name': 'Sloche', 'icon': 'sloche'}, {'name': 'hotdog', 'display_name': 'Hotdog', 'icon': 'hotdog'}]"
6002129,0,6138 ROUTE 8,BOIESTOWN,46.4564440,-66.4175950,0,,Couche-Tard,OPEN,quebec,quebec,348.7778918812118,CA,/store-locator/CA/boiestown/6138-route-8/6002129,"[{'name': 'gas', 'display_name': 'Gas', 'icon': 'gas'}, {'name': 'diesel', 'display_name': 'Diesel', 'icon': 'diesel'}, {'name': 'public_restrooms', 'display_name': 'Public Restrooms', 'icon': 'public_restrooms'}, {'name': 'coffee', 'display_name': 'Coffee', 'icon': 'coffee'}, {'name': 'froster', 'display_name': 'Froster', 'icon': 'froster'}, {'name': 'sloche', 'display_name': 'Sloche', 'icon': 'sloche'}]"
6000948,0,2929 BOUL. LAFLECHE,BAIE-COMEAU,49.1921400,-68.3020480,0,,Couche-Tard,OPEN,quebec,quebec,350.2284953237091,CA,/store-locator/CA/baie-comeau/2929-boul-lafleche/6000948,"[{'name': 'gas', 'display_name': 'Gas', 'icon': 'gas'}, {'name': 'diesel', 'display_name': 'Diesel', 'icon': 'diesel'}, {'name': 'public_restrooms', 'display_name': 'Public Restrooms', 'icon': 'public_restrooms'}, {'name': 'coffee', 'display_name': 'Coffee', 'icon': 'coffee'}, {'name': 'froster', 'display_name': 'Froster', 'icon': 'froster'}, {'name': 'sloche', 'display_name': 'Sloche', 'icon': 'sloche'}, {'name': 'fresh_food_fast', 'display_name': 'Fresh Food Fast', 'icon': 'food'}, {'name': 'pastries', 'display_name': 'Pastries', 'icon': 'pastries'}, {'name': 'hotdog', 'display_name': 'Hotdog', 'icon': 'hotdog'}]"
6002046,0,707 EAGLE ROCK RD,WELSFORD,45.4554660,-66.3418340,0,,Couche-Tard,OPEN,quebec,quebec,352.3465427509033,CA,/store-locator/CA/welsford/707-eagle-rock-rd/6002046,"[{'name': 'gas', 'display_name': 'Gas', 'icon': 'gas'}, {'name': 'diesel', 'display_name': 'Diesel', 'icon': 'diesel'}, {'name': 'public_restrooms', 'display_name': 'Public Restrooms', 'icon': 'public_restrooms'}, {'name': 'coffee', 'display_name': 'Coffee', 'icon': 'coffee'}, {'name': 'froster', 'display_name': 'Froster', 'icon': 'froster'}, {'name': 'sloche', 'display_name': 'Sloche', 'icon': 'sloche'}, {'name': 'hotdog', 'display_name': 'Hotdog', 'icon': 'hotdog'}]"
6000947,0,193 BOUL. LASALLE,BAIE-COMEAU,49.2176700,-68.1663010,0,,Couche-Tard,OPEN,quebec,quebec,355.6382439967465,CA,/store-locator/CA/baie-comeau/193-boul-lasalle/6000947,"[{'name': 'gas', 'display_name': 'Gas', 'icon': 'gas'}, {'name': 'diesel', 'display_name': 'Diesel', 'icon': 'diesel'}, {'name': 'public_restrooms', 'display_name': 'Public Restrooms', 'icon': 'public_restrooms'}, {'name': 'coffee', 'display_name': 'Coffee', 'icon': 'coffee'}, {'name': 'froster', 'display_name': 'Froster', 'icon': 'froster'}, {'name': 'sloche', 'display_name': 'Sloche', 'icon': 'sloche'}]"
6001086,0,1399 AVENUE DU PHARE OUEST,MATANE,48.8398400,-67.5652550,0,,Couche-Tard,OPEN,quebec,quebec,359.08970815662326,CA,/store-locator/CA/matane/1399-avenue-du-phare-ouest/6001086,"[{'name': 'gas', 'display_name': 'Gas', 'icon': 'gas'}, {'name': 'diesel', 'display_name': 'Diesel', 'icon': 'diesel'}, {'name': 'public_restrooms', 'display_name': 'Public Restrooms', 'icon': 'public_restrooms'}, {'name': 'coffee', 'display_name': 'Coffee', 'icon': 'coffee'}, {'name': 'froster', 'display_name': 'Froster', 'icon': 'froster'}, {'name': 'sloche', 'display_name': 'Sloche', 'icon': 'sloche'}, {'name': 'fresh_food_fast', 'display_name': 'Fresh Food Fast', 'icon': 'food'}, {'name': 'pastries', 'display_name': 'Pastries', 'icon': 'pastries'}, {'name': 'hotdog', 'display_name': 'Hotdog', 'icon': 'hotdog'}]"
6002032,0,309 RIVER VALLEY DR.,GRAND BAY WESTFIELD,45.3061750,-66.1955030,0,,Couche-Tard,OPEN,quebec,quebec,360.61981989863756,CA,/store-locator/CA/grand-bay-westfield/309-river-valley-dr/6002032,"[{'name': 'gas', 'display_name': 'Gas', 'icon': 'gas'}, {'name': 'diesel', 'display_name': 'Diesel', 'icon': 'diesel'}, {'name': 'public_restrooms', 'display_name': 'Public Restrooms', 'icon': 'public_restrooms'}, {'name': 'coffee', 'display_name': 'Coffee', 'icon': 'coffee'}, {'name': 'froster', 'display_name': 'Froster', 'icon': 'froster'}, {'name': 'sloche', 'display_name': 'Sloche', 'icon': 'sloche'}]"
6000922,0,521 DU PHARE EST,MATANE,48.8520280,-67.5128540,0,,Couche-Tard,OPEN,quebec,quebec,361.40561174836375,CA,/store-locator/CA/matane/521-du-phare-est/6000922,"[{'name': 'gas', 'display_name': 'Gas', 'icon': 'gas'}, {'name': 'diesel', 'display_name': 'Diesel', 'icon': 'diesel'}, {'name': 'public_restrooms', 'display_name': 'Public Restrooms', 'icon': 'public_restrooms'}, {'name': 'coffee', 'display_name': 'Coffee', 'icon': 'coffee'}, {'name': 'froster', 'display_name': 'Froster', 'icon': 'froster'}, {'name': 'sloche', 'display_name': 'Sloche', 'icon': 'sloche'}]"
6002535,0,143 VAL D'AMOUR ROAD,CAMPBELLTON,47.9974860,-66.6925560,0,,Couche-Tard,OPEN,quebec,quebec,363.56877019844876,CA,/store-locator/CA/campbellton/143-val-d-amour-road/6002535,"[{'name': 'gas', 'display_name': 'Gas', 'icon': 'gas'}, {'name': 'diesel', 'display_name': 'Diesel', 'icon': 'diesel'}, {'name': 'public_restrooms', 'display_name': 'Public Restrooms', 'icon': 'public_restrooms'}, {'name': 'coffee', 'display_name': 'Coffee', 'icon': 'coffee'}, {'name': 'froster', 'display_name': 'Froster', 'icon': 'froster'}, {'name': 'sloche', 'display_name': 'Sloche', 'icon': 'sloche'}, {'name': 'hotdog', 'display_name': 'Hotdog', 'icon': 'hotdog'}]"
6002004,0,157 ROSEBERRY STREET,CAMPBELLTON,48.0032120,-66.6830120,0,,Couche-Tard,OPEN,quebec,quebec,364.11387070461717,CA,/store-locator/CA/campbellton/157-roseberry-street/6002004,"[{'name': 'gas', 'display_name': 'Gas', 'icon': 'gas'}, {'name': 'diesel', 'display_name': 'Diesel', 'icon': 'diesel'}, {'name': 'public_restrooms', 'display_name': 'Public Restrooms', 'icon': 'public_restrooms'}, {'name': 'coffee', 'display_name': 'Coffee', 'icon': 'coffee'}, {'name': 'froster', 'display_name': 'Froster', 'icon': 'froster'}, {'name': 'sloche', 'display_name': 'Sloche', 'icon': 'sloche'}, {'name': 'hotdog', 'display_name': 'Hotdog', 'icon': 'hotdog'}]"
6000935,0,6 INTERPROVINCIAL,POINTE-A-LA-CROIX,48.0170970,-66.6860770,0,,Couche-Tard,OPEN,quebec,quebec,364.3709422539866,CA,/store-locator/CA/pointe-a-la-croix/6-interprovincial/6000935,"[{'name': 'gas', 'display_name': 'Gas', 'icon': 'gas'}, {'name': 'diesel', 'display_name': 'Diesel', 'icon': 'diesel'}, {'name': 'public_restrooms', 'display_name': 'Public Restrooms', 'icon': 'public_restrooms'}, {'name': 'coffee', 'display_name': 'Coffee', 'icon': 'coffee'}, {'name': 'froster', 'display_name': 'Froster', 'icon': 'froster'}, {'name': 'sloche', 'display_name': 'Sloche', 'icon': 'sloche'}, {'name': 'pastries', 'display_name': 'Pastries', 'icon': 'pastries'}]"
6002030,0,701 MILLIDGE AVE,SAINT JOHN,45.2948460,-66.0977140,0,,Couche-Tard,OPEN,quebec,quebec,365.47145024938,CA,/store-locator/CA/saint-john/701-millidge-ave/6002030,"[{'name': 'gas', 'display_name': 'Gas', 'icon': 'gas'}, {'name': 'diesel', 'display_name': 'Diesel', 'icon': 'diesel'}, {'name': 'public_restrooms', 'display_name': 'Public Restrooms', 'icon': 'public_restrooms'}, {'name': 'coffee', 'display_name': 'Coffee', 'icon': 'coffee'}, {'name': 'froster', 'display_name': 'Froster', 'icon': 'froster'}, {'name': 'sloche', 'display_name': 'Sloche', 'icon': 'sloche'}, {'name': 'hotdog', 'display_name': 'Hotdog', 'icon': 'hotdog'}]"
6002035,0,783 FAIRVILLE BLVD,SAINT JOHN,45.2521670,-66.0988230,0,,Couche-Tard,OPEN,quebec,quebec,365.8166769335856,CA,/store-locator/CA/saint-john/783-fairville-blvd/6002035,"[{'name': 'gas', 'display_name': 'Gas', 'icon': 'gas'}, {'name': 'diesel', 'display_name': 'Diesel', 'icon': 'diesel'}, {'name': 'public_restrooms', 'display_name': 'Public Restrooms', 'icon': 'public_restrooms'}, {'name': 'coffee', 'display_name': 'Coffee', 'icon': 'coffee'}, {'name': 'froster', 'display_name': 'Froster', 'icon': 'froster'}, {'name': 'sloche', 'display_name': 'Sloche', 'icon': 'sloche'}, {'name': 'hotdog', 'display_name': 'Hotdog', 'icon': 'hotdog'}]"
6002031,0,56 CITY ROAD,SAINT JOHN,45.2796020,-66.0594620,0,,Couche-Tard,OPEN,quebec,quebec,367.4697601476086,CA,/store-locator/CA/saint-john/56-city-road/6002031,"[{'name': 'car_wash', 'display_name': 'Car Wash', 'icon': 'car_wash'}, {'name': 'gas', 'display_name': 'Gas', 'icon': 'gas'}, {'name': 'diesel', 'display_name': 'Diesel', 'icon': 'diesel'}, {'name': 'public_restrooms', 'display_name': 'Public Restrooms', 'icon': 'public_restrooms'}, {'name': 'coffee', 'display_name': 'Coffee', 'icon': 'coffee'}, {'name': 'froster', 'display_name': 'Froster', 'icon': 'froster'}, {'name': 'sloche', 'display_name': 'Sloche', 'icon': 'sloche'}, {'name': 'hotdog', 'display_name': 'Hotdog', 'icon': 'hotdog'}]"
6002028,0,1700 ROTHESAY RD,SAINT JOHN,45.3474960,-66.0175860,0,,Couche-Tard,OPEN,quebec,quebec,368.9013248212614,CA,/store-locator/CA/saint-john/1700-rothesay-rd/6002028,"[{'name': 'gas', 'display_name': 'Gas', 'icon': 'gas'}, {'name': 'diesel', 'display_name': 'Diesel', 'icon': 'diesel'}, {'name': 'public_restrooms', 'display_name': 'Public Restrooms', 'icon': 'public_restrooms'}, {'name': 'coffee', 'display_name': 'Coffee', 'icon': 'coffee'}, {'name': 'froster', 'display_name': 'Froster', 'icon': 'froster'}, {'name': 'sloche', 'display_name': 'Sloche', 'icon': 'sloche'}, {'name': 'hotdog', 'display_name': 'Hotdog', 'icon': 'hotdog'}]"
6002033,0,830 LOCH LOMOND RD,SAINT JOHN,45.2988360,-66.0074240,0,,Couche-Tard,OPEN,quebec,quebec,369.8211345692624,CA,/store-locator/CA/saint-john/830-loch-lomond-rd/6002033,"[{'name': 'gas', 'display_name': 'Gas', 'icon': 'gas'}, {'name': 'diesel', 'display_name': 'Diesel', 'icon': 'diesel'}, {'name': 'public_restrooms', 'display_name': 'Public Restrooms', 'icon': 'public_restrooms'}, {'name': 'coffee', 'display_name': 'Coffee', 'icon': 'coffee'}, {'name': 'froster', 'display_name': 'Froster', 'icon': 'froster'}, {'name': 'sloche', 'display_name': 'Sloche', 'icon': 'sloche'}, {'name': 'hotdog', 'display_name': 'Hotdog', 'icon': 'hotdog'}]"
6002038,0,4 MARR RD,ROTHESAY,45.3960380,-65.9824390,0,,Couche-Tard,OPEN,quebec,quebec,370.21145696083516,CA,/store-locator/CA/rothesay/4-marr-rd/6002038,"[{'name': 'gas', 'display_name': 'Gas', 'icon': 'gas'}, {'name': 'public_restrooms', 'display_name': 'Public Restrooms', 'icon': 'public_restrooms'}, {'name': 'coffee', 'display_name': 'Coffee', 'icon': 'coffee'}, {'name': 'froster', 'display_name': 'Froster', 'icon': 'froster'}, {'name': 'sloche', 'display_name': 'Sloche', 'icon': 'sloche'}, {'name': 'hotdog', 'display_name': 'Hotdog', 'icon': 'hotdog'}]"
6002029,0,2670 ROUTE 1,ROTHESAY,45.3755060,-65.9808500,0,,Couche-Tard,OPEN,quebec,quebec,370.4524863292918,CA,/store-locator/CA/rothesay/2670-route-1/6002029,"[{'name': 'gas', 'display_name': 'Gas', 'icon': 'gas'}, {'name': 'diesel', 'display_name': 'Diesel', 'icon': 'diesel'}, {'name': 'public_restrooms', 'display_name': 'Public Restrooms', 'icon': 'public_restrooms'}, {'name': 'coffee', 'display_name': 'Coffee', 'icon': 'coffee'}, {'name': 'froster', 'display_name': 'Froster', 'icon': 'froster'}, {'name': 'sloche', 'display_name': 'Sloche', 'icon': 'sloche'}, {'name': 'hotdog', 'display_name': 'Hotdog', 'icon': 'hotdog'}]"
6002036,0,1233 LOCH LOMOND ROAD,SAINT JOHN,45.3037070,-65.9928780,0,,Couche-Tard,OPEN,quebec,quebec,370.48362466400584,CA,/store-locator/CA/saint-john/1233-loch-lomond-road/6002036,"[{'name': 'gas', 'display_name': 'Gas', 'icon': 'gas'}, {'name': 'public_restrooms', 'display_name': 'Public Restrooms', 'icon': 'public_restrooms'}, {'name': 'coffee', 'display_name': 'Coffee', 'icon': 'coffee'}, {'name': 'froster', 'display_name': 'Froster', 'icon': 'froster'}, {'name': 'sloche', 'display_name': 'Sloche', 'icon': 'sloche'}]"
6002132,0,8 MILLENIUM DRIVE,QUISPAMSIS,45.4178730,-65.9429850,0,,Couche-Tard,OPEN,quebec,quebec,371.95658839436425,CA,/store-locator/CA/quispamsis/8-millenium-drive/6002132,"[{'name': 'gas', 'display_name': 'Gas', 'icon': 'gas'}, {'name': 'diesel', 'display_name': 'Diesel', 'icon': 'diesel'}, {'name': 'public_restrooms', 'display_name': 'Public Restrooms', 'icon': 'public_restrooms'}, {'name': 'coffee', 'display_name': 'Coffee', 'icon': 'coffee'}, {'name': 'froster', 'display_name': 'Froster', 'icon': 'froster'}, {'name': 'sloche', 'display_name': 'Sloche', 'icon': 'sloche'}, {'name': 'hotdog', 'display_name': 'Hotdog', 'icon': 'hotdog'}]"
6002034,0,632 MAIN STREET,HAMPTON,45.5252000,-65.8273070,0,,Couche-Tard,OPEN,quebec,quebec,376.814148696085,CA,/store-locator/CA/hampton/632-main-street/6002034,"[{'name': 'gas', 'display_name': 'Gas', 'icon': 'gas'}, {'name': 'diesel', 'display_name': 'Diesel', 'icon': 'diesel'}, {'name': 'public_restrooms', 'display_name': 'Public Restrooms', 'icon': 'public_restrooms'}, {'name': 'coffee', 'display_name': 'Coffee', 'icon': 'coffee'}, {'name': 'froster', 'display_name': 'Froster', 'icon': 'froster'}, {'name': 'sloche', 'display_name': 'Sloche', 'icon': 'sloche'}, {'name': 'hotdog', 'display_name': 'Hotdog', 'icon': 'hotdog'}]"
6002023,0,100 MAIN STREET,BLACKVILLE,46.7304530,-65.8301660,0,,Couche-Tard,OPEN,quebec,quebec,378.243940253563,CA,/store-locator/CA/blackville/100-main-street/6002023,"[{'name': 'gas', 'display_name': 'Gas', 'icon': 'gas'}, {'name': 'diesel', 'display_name': 'Diesel', 'icon': 'diesel'}, {'name': 'public_restrooms', 'display_name': 'Public Restrooms', 'icon': 'public_restrooms'}, {'name': 'coffee', 'display_name': 'Coffee', 'icon': 'coffee'}, {'name': 'froster', 'display_name': 'Froster', 'icon': 'froster'}, {'name': 'sloche', 'display_name': 'Sloche', 'icon': 'sloche'}]"
6002006,0,173 RENFREW STREET,DALHOUSIE,48.0601770,-66.3697380,0,,Couche-Tard,OPEN,quebec,quebec,378.41653062572885,CA,/store-locator/CA/dalhousie/173-renfrew-street/6002006,"[{'name': 'gas', 'display_name': 'Gas', 'icon': 'gas'}, {'name': 'diesel', 'display_name': 'Diesel', 'icon': 'diesel'}, {'name': 'public_restrooms', 'display_name': 'Public Restrooms', 'icon': 'public_restrooms'}, {'name': 'coffee', 'display_name': 'Coffee', 'icon': 'coffee'}, {'name': 'froster', 'display_name': 'Froster', 'icon': 'froster'}, {'name': 'sloche', 'display_name': 'Sloche', 'icon': 'sloche'}]"
6002139,0,19  ROUTE 124,NORTON,45.6357840,-65.6920490,0,,Couche-Tard,OPEN,quebec,quebec,382.7232052212193,CA,/store-locator/CA/norton/19-route-124/6002139,"[{'name': 'gas', 'display_name': 'Gas', 'icon': 'gas'}, {'name': 'diesel', 'display_name': 'Diesel', 'icon': 'diesel'}, {'name': 'public_restrooms', 'display_name': 'Public Restrooms', 'icon': 'public_restrooms'}, {'name': 'coffee', 'display_name': 'Coffee', 'icon': 'coffee'}, {'name': 'froster', 'display_name': 'Froster', 'icon': 'froster'}, {'name': 'sloche', 'display_name': 'Sloche', 'icon': 'sloche'}, {'name': 'pastries', 'display_name': 'Pastries', 'icon': 'pastries'}, {'name': 'hotdog', 'display_name': 'Hotdog', 'icon': 'hotdog'}]"
6002088,0,632 MAIN STREET VANCOUVER ST,YARMOUTH,43.8517000,-66.1146960,0,,Couche-Tard,OPEN,quebec,quebec,390.45562941096256,CA,/store-locator/CA/yarmouth/632-main-street-vancouver-st/6002088,"[{'name': 'gas', 'display_name': 'Gas', 'icon': 'gas'}, {'name': 'diesel', 'display_name': 'Diesel', 'icon': 'diesel'}, {'name': 'public_restrooms', 'display_name': 'Public Restrooms', 'icon': 'public_restrooms'}, {'name': 'coffee', 'display_name': 'Coffee', 'icon': 'coffee'}, {'name': 'froster', 'display_name': 'Froster', 'icon': 'froster'}, {'name': 'sloche', 'display_name': 'Sloche', 'icon': 'sloche'}, {'name': 'hotdog', 'display_name': 'Hotdog', 'icon': 'hotdog'}]"
6002052,0,510 HWY 303,CONWAY,44.5984550,-65.7715150,0,,Couche-Tard,OPEN,quebec,quebec,390.67907136707123,CA,/store-locator/CA/conway/510-hwy-303/6002052,"[{'name': 'gas', 'display_name': 'Gas', 'icon': 'gas'}, {'name': 'diesel', 'display_name': 'Diesel', 'icon': 'diesel'}, {'name': 'public_restrooms', 'display_name': 'Public Restrooms', 'icon': 'public_restrooms'}, {'name': 'coffee', 'display_name': 'Coffee', 'icon': 'coffee'}, {'name': 'froster', 'display_name': 'Froster', 'icon': 'froster'}, {'name': 'sloche', 'display_name': 'Sloche', 'icon': 'sloche'}]"
6002089,0,65 STARRS ROAD,YARMOUTH,43.8443260,-66.1087790,0,,Couche-Tard,OPEN,quebec,quebec,390.93049652244,CA,/store-locator/CA/yarmouth/65-starrs-road/6002089,"[{'name': 'gas', 'display_name': 'Gas', 'icon': 'gas'}, {'name': 'diesel', 'display_name': 'Diesel', 'icon': 'diesel'}, {'name': 'public_restrooms', 'display_name': 'Public Restrooms', 'icon': 'public_restrooms'}, {'name': 'coffee', 'display_name': 'Coffee', 'icon': 'coffee'}, {'name': 'froster', 'display_name': 'Froster', 'icon': 'froster'}, {'name': 'sloche', 'display_name': 'Sloche', 'icon': 'sloche'}]"
6002041,0,653 MAIN STREET,SUSSEX,45.7227250,-65.5064650,0,,Couche-Tard,OPEN,quebec,quebec,391.27318187210983,CA,/store-locator/CA/sussex/653-main-street/6002041,"[{'name': 'gas', 'display_name': 'Gas', 'icon': 'gas'}, {'name': 'diesel', 'display_name': 'Diesel', 'icon': 'diesel'}, {'name': 'public_restrooms', 'display_name': 'Public Restrooms', 'icon': 'public_restrooms'}, {'name': 'coffee', 'display_name': 'Coffee', 'icon': 'coffee'}, {'name': 'froster', 'display_name': 'Froster', 'icon': 'froster'}, {'name': 'sloche', 'display_name': 'Sloche', 'icon': 'sloche'}, {'name': 'hotdog', 'display_name': 'Hotdog', 'icon': 'hotdog'}]"
6002042,0,11 ROUTE 890,SUSSEX (FOUR CORNERS),45.7364350,-65.4999730,0,,Couche-Tard,OPEN,quebec,quebec,391.52904944427723,CA,/store-locator/CA/sussex-four-corners/11-route-890/6002042,"[{'name': 'gas', 'display_name': 'Gas', 'icon': 'gas'}, {'name': 'diesel', 'display_name': 'Diesel', 'icon': 'diesel'}, {'name': 'public_restrooms', 'display_name': 'Public Restrooms', 'icon': 'public_restrooms'}, {'name': 'coffee', 'display_name': 'Coffee', 'icon': 'coffee'}, {'name': 'froster', 'display_name': 'Froster', 'icon': 'froster'}, {'name': 'sloche', 'display_name': 'Sloche', 'icon': 'sloche'}, {'name': 'hotdog', 'display_name': 'Hotdog', 'icon': 'hotdog'}]"
6002025,0,160 JANE STREET,MIRAMICHI,46.9993670,-65.5680870,0,,Couche-Tard,OPEN,quebec,quebec,392.9859595631833,CA,/store-locator/CA/miramichi/160-jane-street/6002025,"[{'name': 'gas', 'display_name': 'Gas', 'icon': 'gas'}, {'name': 'diesel', 'display_name': 'Diesel', 'icon': 'diesel'}, {'name': 'public_restrooms', 'display_name': 'Public Restrooms', 'icon': 'public_restrooms'}, {'name': 'coffee', 'display_name': 'Coffee', 'icon': 'coffee'}, {'name': 'froster', 'display_name': 'Froster', 'icon': 'froster'}, {'name': 'sloche', 'display_name': 'Sloche', 'icon': 'sloche'}]"
6000925,0,511 BOU. PERRON,MARIA,48.1742400,-65.9827880,0,,Couche-Tard,OPEN,quebec,quebec,397.21001045102753,CA,/store-locator/CA/maria/511-bou-perron/6000925,"[{'name': 'gas', 'display_name': 'Gas', 'icon': 'gas'}, {'name': 'diesel', 'display_name': 'Diesel', 'icon': 'diesel'}, {'name': 'public_restrooms', 'display_name': 'Public Restrooms', 'icon': 'public_restrooms'}, {'name': 'coffee', 'display_name': 'Coffee', 'icon': 'coffee'}, {'name': 'froster', 'display_name': 'Froster', 'icon': 'froster'}, {'name': 'sloche', 'display_name': 'Sloche', 'icon': 'sloche'}, {'name': 'pastries', 'display_name': 'Pastries', 'icon': 'pastries'}, {'name': 'hotdog', 'display_name': 'Hotdog', 'icon': 'hotdog'}]"
6002534,0,1395 ST. PETERS AV.,BATHURST,47.6402800,-65.6818110,0,,Couche-Tard,OPEN,quebec,quebec,397.7595174616703,CA,/store-locator/CA/bathurst/1395-st-peters-av/6002534,"[{'name': 'gas', 'display_name': 'Gas', 'icon': 'gas'}, {'name': 'public_restrooms', 'display_name': 'Public Restrooms', 'icon': 'public_restrooms'}, {'name': 'coffee', 'display_name': 'Coffee', 'icon': 'coffee'}, {'name': 'froster', 'display_name': 'Froster', 'icon': 'froster'}, {'name': 'sloche', 'display_name': 'Sloche', 'icon': 'sloche'}]"
6002024,0,186 KING STREET,MIRAMICHI,47.0197680,-65.4449410,0,,Couche-Tard,OPEN,quebec,quebec,398.8143351994928,CA,/store-locator/CA/miramichi/186-king-street/6002024,"[{'name': 'gas', 'display_name': 'Gas', 'icon': 'gas'}, {'name': 'diesel', 'display_name': 'Diesel', 'icon': 'diesel'}, {'name': 'public_restrooms', 'display_name': 'Public Restrooms', 'icon': 'public_restrooms'}, {'name': 'coffee', 'display_name': 'Coffee', 'icon': 'coffee'}, {'name': 'froster', 'display_name': 'Froster', 'icon': 'froster'}, {'name': 'sloche', 'display_name': 'Sloche', 'icon': 'sloche'}, {'name': 'pastries', 'display_name': 'Pastries', 'icon': 'pastries'}, {'name': 'hotdog', 'display_name': 'Hotdog', 'icon': 'hotdog'}]"
6002026,0,16 SMITH STREET,PETITCODIAC,45.9326740,-65.1677760,0,,Couche-Tard,OPEN,quebec,quebec,406.8835019238207,CA,/store-locator/CA/petitcodiac/16-smith-street/6002026,"[{'name': 'gas', 'display_name': 'Gas', 'icon': 'gas'}, {'name': 'diesel', 'display_name': 'Diesel', 'icon': 'diesel'}, {'name': 'public_restrooms', 'display_name': 'Public Restrooms', 'icon': 'public_restrooms'}, {'name': 'coffee', 'display_name': 'Coffee', 'icon': 'coffee'}, {'name': 'froster', 'display_name': 'Froster', 'icon': 'froster'}, {'name': 'sloche', 'display_name': 'Sloche', 'icon': 'sloche'}]"
6000923,0,5 BOUL.STE-ANNE O.,STE-ANNE-DES-MONTS,49.1261980,-66.4852500,0,,Couche-Tard,OPEN,quebec,quebec,408.29209979280796,CA,/store-locator/CA/ste-anne-des-monts/5-boul-ste-anne-o/6000923,"[{'name': 'gas', 'display_name': 'Gas', 'icon': 'gas'}, {'name': 'diesel', 'display_name': 'Diesel', 'icon': 'diesel'}, {'name': 'public_restrooms', 'display_name': 'Public Restrooms', 'icon': 'public_restrooms'}, {'name': 'coffee', 'display_name': 'Coffee', 'icon': 'coffee'}, {'name': 'froster', 'display_name': 'Froster', 'icon': 'froster'}, {'name': 'sloche', 'display_name': 'Sloche', 'icon': 'sloche'}, {'name': 'pastries', 'display_name': 'Pastries', 'icon': 'pastries'}, {'name': 'hotdog', 'display_name': 'Hotdog', 'icon': 'hotdog'}]"
6002016,0,2986 FREDERICTON ROAD,SALISBURY,46.0508460,-65.0621440,0,,Couche-Tard,OPEN,quebec,quebec,411.75116860274295,CA,/store-locator/CA/salisbury/2986-fredericton-road/6002016,"[{'name': 'gas', 'display_name': 'Gas', 'icon': 'gas'}, {'name': 'diesel', 'display_name': 'Diesel', 'icon': 'diesel'}, {'name': 'public_restrooms', 'display_name': 'Public Restrooms', 'icon': 'public_restrooms'}, {'name': 'coffee', 'display_name': 'Coffee', 'icon': 'coffee'}, {'name': 'froster', 'display_name': 'Froster', 'icon': 'froster'}, {'name': 'sloche', 'display_name': 'Sloche', 'icon': 'sloche'}, {'name': 'hotdog', 'display_name': 'Hotdog', 'icon': 'hotdog'}]"
6000927,0,102 RUE PORT ROYAL,BONAVENTURE,48.0460970,-65.4945980,0,,Couche-Tard,OPEN,quebec,quebec,414.2460189989943,CA,/store-locator/CA/bonaventure/102-rue-port-royal/6000927,"[{'name': 'gas', 'display_name': 'Gas', 'icon': 'gas'}, {'name': 'public_restrooms', 'display_name': 'Public Restrooms', 'icon': 'public_restrooms'}, {'name': 'coffee', 'display_name': 'Coffee', 'icon': 'coffee'}, {'name': 'froster', 'display_name': 'Froster', 'icon': 'froster'}, {'name': 'sloche', 'display_name': 'Sloche', 'icon': 'sloche'}]"
6002138,0,10 DU MARAIS ROAD,SAINT-LOUIS-DE-KENT,46.7244260,-64.9910120,0,,Couche-Tard,OPEN,quebec,quebec,417.0256078956103,CA,/store-locator/CA/saint-louis-de-kent/10-du-marais-road/6002138,"[{'name': 'gas', 'display_name': 'Gas', 'icon': 'gas'}, {'name': 'diesel', 'display_name': 'Diesel', 'icon': 'diesel'}, {'name': 'public_restrooms', 'display_name': 'Public Restrooms', 'icon': 'public_restrooms'}, {'name': 'coffee', 'display_name': 'Coffee', 'icon': 'coffee'}, {'name': 'froster', 'display_name': 'Froster', 'icon': 'froster'}, {'name': 'sloche', 'display_name': 'Sloche', 'icon': 'sloche'}, {'name': 'hotdog', 'display_name': 'Hotdog', 'icon': 'hotdog'}]"
6002501,0,1926 MOUNTAIN ROAD,MONCTON,46.1221470,-64.8524790,0,,Couche-Tard,OPEN,quebec,quebec,421.6999788657212,CA,/store-locator/CA/moncton/1926-mountain-road/6002501,"[{'name': 'car_wash', 'display_name': 'Car Wash', 'icon': 'car_wash'}, {'name': 'gas', 'display_name': 'Gas', 'icon': 'gas'}, {'name': 'diesel', 'display_name': 'Diesel', 'icon': 'diesel'}, {'name': 'public_restrooms', 'display_name': 'Public Restrooms', 'icon': 'public_restrooms'}, {'name': 'coffee', 'display_name': 'Coffee', 'icon': 'coffee'}, {'name': 'froster', 'display_name': 'Froster', 'icon': 'froster'}, {'name': 'sloche', 'display_name': 'Sloche', 'icon': 'sloche'}, {'name': 'hotdog', 'display_name': 'Hotdog', 'icon': 'hotdog'}]"
6002001,0,126 MAIN STREET,REXTON,46.6467700,-64.8753670,0,,Couche-Tard,OPEN,quebec,quebec,421.93090467311987,CA,/store-locator/CA/rexton/126-main-street/6002001,"[{'name': 'gas', 'display_name': 'Gas', 'icon': 'gas'}, {'name': 'diesel', 'display_name': 'Diesel', 'icon': 'diesel'}, {'name': 'public_restrooms', 'display_name': 'Public Restrooms', 'icon': 'public_restrooms'}, {'name': 'coffee', 'display_name': 'Coffee', 'icon': 'coffee'}, {'name': 'froster', 'display_name': 'Froster', 'icon': 'froster'}, {'name': 'sloche', 'display_name': 'Sloche', 'icon': 'sloche'}, {'name': 'hotdog', 'display_name': 'Hotdog', 'icon': 'hotdog'}]"
6002015,0,1515 MOUNTAIN ROAD,MONCTON,46.1147000,-64.8371100,0,,Couche-Tard,OPEN,quebec,quebec,422.43645895588213,CA,/store-locator/CA/moncton/1515-mountain-road/6002015,"[{'name': 'gas', 'display_name': 'Gas', 'icon': 'gas'}, {'name': 'diesel', 'display_name': 'Diesel', 'icon': 'diesel'}, {'name': 'public_restrooms', 'display_name': 'Public Restrooms', 'icon': 'public_restrooms'}, {'name': 'coffee', 'display_name': 'Coffee', 'icon': 'coffee'}, {'name': 'froster', 'display_name': 'Froster', 'icon': 'froster'}, {'name': 'sloche', 'display_name': 'Sloche', 'icon': 'sloche'}, {'name': 'hotdog', 'display_name': 'Hotdog', 'icon': 'hotdog'}]"
6002136,0,595 MAPLETON RD,MONCTON,46.1257250,-64.8303560,0,,Couche-Tard,OPEN,quebec,quebec,422.7522284398965,CA,/store-locator/CA/moncton/595-mapleton-rd/6002136,"[{'name': 'gas', 'display_name': 'Gas', 'icon': 'gas'}, {'name': 'diesel', 'display_name': 'Diesel', 'icon': 'diesel'}, {'name': 'public_restrooms', 'display_name': 'Public Restrooms', 'icon': 'public_restrooms'}, {'name': 'coffee', 'display_name': 'Coffee', 'icon': 'coffee'}, {'name': 'froster', 'display_name': 'Froster', 'icon': 'froster'}, {'name': 'sloche', 'display_name': 'Sloche', 'icon': 'sloche'}, {'name': 'hotdog', 'display_name': 'Hotdog', 'icon': 'hotdog'}]"
6002124,0,3704 HWY # 3,BARRINGTON PASSAGE,43.5216610,-65.6160960,0,,Couche-Tard,OPEN,quebec,quebec,423.19884216081294,CA,/store-locator/CA/barrington-passage/3704-hwy-3/6002124,"[{'name': 'gas', 'display_name': 'Gas', 'icon': 'gas'}, {'name': 'diesel', 'display_name': 'Diesel', 'icon': 'diesel'}, {'name': 'public_restrooms', 'display_name': 'Public Restrooms', 'icon': 'public_restrooms'}, {'name': 'coffee', 'display_name': 'Coffee', 'icon': 'coffee'}, {'name': 'froster', 'display_name': 'Froster', 'icon': 'froster'}, {'name': 'sloche', 'display_name': 'Sloche', 'icon': 'sloche'}]"
6002539,0,884 MOUNTAIN ROAD,MONCTON,46.1008100,-64.8117490,0,,Couche-Tard,OPEN,quebec,quebec,423.6552587155958,CA,/store-locator/CA/moncton/884-mountain-road/6002539,"[{'name': 'car_wash', 'display_name': 'Car Wash', 'icon': 'car_wash'}, {'name': 'gas', 'display_name': 'Gas', 'icon': 'gas'}, {'name': 'diesel', 'display_name': 'Diesel', 'icon': 'diesel'}, {'name': 'public_restrooms', 'display_name': 'Public Restrooms', 'icon': 'public_restrooms'}, {'name': 'coffee', 'display_name': 'Coffee', 'icon': 'coffee'}, {'name': 'froster', 'display_name': 'Froster', 'icon': 'froster'}, {'name': 'sloche', 'display_name': 'Sloche', 'icon': 'sloche'}, {'name': 'hotdog', 'display_name': 'Hotdog', 'icon': 'hotdog'}]"
6002020,0,650 GEORGES BLD,MONCTON,46.0855500,-64.8069820,0,,Couche-Tard,OPEN,quebec,quebec,423.8962851781366,CA,/store-locator/CA/moncton/650-georges-bld/6002020,"[{'name': 'gas', 'display_name': 'Gas', 'icon': 'gas'}, {'name': 'public_restrooms', 'display_name': 'Public Restrooms', 'icon': 'public_restrooms'}, {'name': 'coffee', 'display_name': 'Coffee', 'icon': 'coffee'}, {'name': 'froster', 'display_name': 'Froster', 'icon': 'froster'}, {'name': 'sloche', 'display_name': 'Sloche', 'icon': 'sloche'}]"
6002021,0,414 COVERDALE RD,RIVERVIEW,46.0652160,-64.7995640,0,,Couche-Tard,OPEN,quebec,quebec,424.2727901936806,CA,/store-locator/CA/riverview/414-coverdale-rd/6002021,"[{'name': 'gas', 'display_name': 'Gas', 'icon': 'gas'}, {'name': 'public_restrooms', 'display_name': 'Public Restrooms', 'icon': 'public_restrooms'}, {'name': 'coffee', 'display_name': 'Coffee', 'icon': 'coffee'}, {'name': 'froster', 'display_name': 'Froster', 'icon': 'froster'}, {'name': 'sloche', 'display_name': 'Sloche', 'icon': 'sloche'}]"
6000926,0,41 BOUL G.LEVESQUE CP 817,PASPEBIAC,48.0317190,-65.2452340,0,,Couche-Tard,OPEN,quebec,quebec,424.38859329421854,CA,/store-locator/CA/paspebiac/41-boul-g-levesque-cp-817/6000926,"[{'name': 'gas', 'display_name': 'Gas', 'icon': 'gas'}, {'name': 'diesel', 'display_name': 'Diesel', 'icon': 'diesel'}, {'name': 'public_restrooms', 'display_name': 'Public Restrooms', 'icon': 'public_restrooms'}, {'name': 'coffee', 'display_name': 'Coffee', 'icon': 'coffee'}, {'name': 'froster', 'display_name': 'Froster', 'icon': 'froster'}, {'name': 'sloche', 'display_name': 'Sloche', 'icon': 'sloche'}, {'name': 'fresh_food_fast', 'display_name': 'Fresh Food Fast', 'icon': 'food'}, {'name': 'hotdog', 'display_name': 'Hotdog', 'icon': 'hotdog'}]"
6002540,0,270 COVERDALE ROAD,RIVERVIEW,46.0681100,-64.7938350,0,,Couche-Tard,OPEN,quebec,quebec,424.5427755138746,CA,/store-locator/CA/riverview/270-coverdale-road/6002540,"[{'name': 'gas', 'display_name': 'Gas', 'icon': 'gas'}, {'name': 'public_restrooms', 'display_name': 'Public Restrooms', 'icon': 'public_restrooms'}, {'name': 'coffee', 'display_name': 'Coffee', 'icon': 'coffee'}, {'name': 'froster', 'display_name': 'Froster', 'icon': 'froster'}, {'name': 'sloche', 'display_name': 'Sloche', 'icon': 'sloche'}, {'name': 'hotdog', 'display_name': 'Hotdog', 'icon': 'hotdog'}]"
6002017,0,301 ELMWOOD DRIVE,MONCTON,46.1136600,-64.7733930,0,,Couche-Tard,OPEN,quebec,quebec,425.47402197649154,CA,/store-locator/CA/moncton/301-elmwood-drive/6002017,"[{'name': 'gas', 'display_name': 'Gas', 'icon': 'gas'}, {'name': 'diesel', 'display_name': 'Diesel', 'icon': 'diesel'}, {'name': 'public_restrooms', 'display_name': 'Public Restrooms', 'icon': 'public_restrooms'}, {'name': 'coffee', 'display_name': 'Coffee', 'icon': 'coffee'}, {'name': 'froster', 'display_name': 'Froster', 'icon': 'froster'}, {'name': 'sloche', 'display_name': 'Sloche', 'icon': 'sloche'}, {'name': 'hotdog', 'display_name': 'Hotdog', 'icon': 'hotdog'}]"
6002122,0,741 CENTRAL AVE.,GREENWOOD,44.9697070,-64.9384530,0,,Couche-Tard,OPEN,quebec,quebec,425.5314315486978,CA,/store-locator/CA/greenwood/741-central-ave/6002122,"[{'name': 'gas', 'display_name': 'Gas', 'icon': 'gas'}, {'name': 'public_restrooms', 'display_name': 'Public Restrooms', 'icon': 'public_restrooms'}, {'name': 'coffee', 'display_name': 'Coffee', 'icon': 'coffee'}, {'name': 'froster', 'display_name': 'Froster', 'icon': 'froster'}, {'name': 'sloche', 'display_name': 'Sloche', 'icon': 'sloche'}]"
6002019,0,64 RUE CHAMPLAIN,DIEPPE,46.0937770,-64.7557730,0,,Couche-Tard,OPEN,quebec,quebec,426.3310575277458,CA,/store-locator/CA/dieppe/64-rue-champlain/6002019,"[{'name': 'gas', 'display_name': 'Gas', 'icon': 'gas'}, {'name': 'diesel', 'display_name': 'Diesel', 'icon': 'diesel'}, {'name': 'public_restrooms', 'display_name': 'Public Restrooms', 'icon': 'public_restrooms'}, {'name': 'coffee', 'display_name': 'Coffee', 'icon': 'coffee'}, {'name': 'froster', 'display_name': 'Froster', 'icon': 'froster'}, {'name': 'sloche', 'display_name': 'Sloche', 'icon': 'sloche'}, {'name': 'hotdog', 'display_name': 'Hotdog', 'icon': 'hotdog'}]"
6002536,0,157 CHAMPLAIN ST.,DIEPPE,46.0952200,-64.7515140,0,,Couche-Tard,OPEN,quebec,quebec,426.5327973977116,CA,/store-locator/CA/dieppe/157-champlain-st/6002536,"[{'name': 'gas', 'display_name': 'Gas', 'icon': 'gas'}, {'name': 'diesel', 'display_name': 'Diesel', 'icon': 'diesel'}, {'name': 'public_restrooms', 'display_name': 'Public Restrooms', 'icon': 'public_restrooms'}, {'name': 'coffee', 'display_name': 'Coffee', 'icon': 'coffee'}]"
6002002,0,4515 RUE PRINCIPALE,SAINT ANTOINE,46.3616800,-64.7505680,0,,Couche-Tard,OPEN,quebec,quebec,426.71779596385886,CA,/store-locator/CA/saint-antoine/4515-rue-principale/6002002,"[{'name': 'gas', 'display_name': 'Gas', 'icon': 'gas'}, {'name': 'diesel', 'display_name': 'Diesel', 'icon': 'diesel'}, {'name': 'public_restrooms', 'display_name': 'Public Restrooms', 'icon': 'public_restrooms'}, {'name': 'coffee', 'display_name': 'Coffee', 'icon': 'coffee'}, {'name': 'froster', 'display_name': 'Froster', 'icon': 'froster'}, {'name': 'sloche', 'display_name': 'Sloche', 'icon': 'sloche'}]"
6002022,0,312 RUE AMIRAULT,DIEPPE,46.0854000,-64.7333730,0,,Couche-Tard,OPEN,quebec,quebec,427.4083699172692,CA,/store-locator/CA/dieppe/312-rue-amirault/6002022,"[{'name': 'gas', 'display_name': 'Gas', 'icon': 'gas'}, {'name': 'public_restrooms', 'display_name': 'Public Restrooms', 'icon': 'public_restrooms'}, {'name': 'coffee', 'display_name': 'Coffee', 'icon': 'coffee'}, {'name': 'froster', 'display_name': 'Froster', 'icon': 'froster'}, {'name': 'sloche', 'display_name': 'Sloche', 'icon': 'sloche'}]"
6002003,0,131 BOUL. IRVING,BOUCTOUCHE,46.4683270,-64.7275340,0,,Couche-Tard,OPEN,quebec,quebec,428.0792823300441,CA,/store-locator/CA/bouctouche/131-boul-irving/6002003,"[{'name': 'gas', 'display_name': 'Gas', 'icon': 'gas'}, {'name': 'diesel', 'display_name': 'Diesel', 'icon': 'diesel'}, {'name': 'public_restrooms', 'display_name': 'Public Restrooms', 'icon': 'public_restrooms'}, {'name': 'coffee', 'display_name': 'Coffee', 'icon': 'coffee'}, {'name': 'froster', 'display_name': 'Froster', 'icon': 'froster'}, {'name': 'sloche', 'display_name': 'Sloche', 'icon': 'sloche'}, {'name': 'hotdog', 'display_name': 'Hotdog', 'icon': 'hotdog'}]"
6002131,0,330 DIEPPE,DIEPPE,46.1045500,-64.7068970,0,,Couche-Tard,OPEN,quebec,quebec,428.65168631539314,CA,/store-locator/CA/dieppe/330-dieppe/6002131,"[{'name': 'gas', 'display_name': 'Gas', 'icon': 'gas'}, {'name': 'diesel', 'display_name': 'Diesel', 'icon': 'diesel'}, {'name': 'public_restrooms', 'display_name': 'Public Restrooms', 'icon': 'public_restrooms'}, {'name': 'coffee', 'display_name': 'Coffee', 'icon': 'coffee'}, {'name': 'froster', 'display_name': 'Froster', 'icon': 'froster'}, {'name': 'sloche', 'display_name': 'Sloche', 'icon': 'sloche'}, {'name': 'hotdog', 'display_name': 'Hotdog', 'icon': 'hotdog'}]"
6002078,0,41 FALLS LANE,SHELBURNE,43.7716600,-65.3359910,0,,Couche-Tard,OPEN,quebec,quebec,429.76291897383607,CA,/store-locator/CA/shelburne/41-falls-lane/6002078,"[{'name': 'gas', 'display_name': 'Gas', 'icon': 'gas'}, {'name': 'diesel', 'display_name': 'Diesel', 'icon': 'diesel'}, {'name': 'public_restrooms', 'display_name': 'Public Restrooms', 'icon': 'public_restrooms'}, {'name': 'coffee', 'display_name': 'Coffee', 'icon': 'coffee'}, {'name': 'froster', 'display_name': 'Froster', 'icon': 'froster'}, {'name': 'sloche', 'display_name': 'Sloche', 'icon': 'sloche'}]"
6002018,0,1528 RUE CHAMPLAIN,DIEPPE,46.1028750,-64.6824070,0,,Couche-Tard,OPEN,quebec,quebec,429.82110268320946,CA,/store-locator/CA/dieppe/1528-rue-champlain/6002018,"[{'name': 'gas', 'display_name': 'Gas', 'icon': 'gas'}, {'name': 'diesel', 'display_name': 'Diesel', 'icon': 'diesel'}, {'name': 'public_restrooms', 'display_name': 'Public Restrooms', 'icon': 'public_restrooms'}, {'name': 'coffee', 'display_name': 'Coffee', 'icon': 'coffee'}, {'name': 'froster', 'display_name': 'Froster', 'icon': 'froster'}, {'name': 'sloche', 'display_name': 'Sloche', 'icon': 'sloche'}]"
6000961,0,60 ROUTE 138,PORT-CARTIER,50.0258370,-66.8925210,0,,Couche-Tard,OPEN,quebec,quebec,432.29002520097896,CA,/store-locator/CA/port-cartier/60-route-138/6000961,"[{'name': 'gas', 'display_name': 'Gas', 'icon': 'gas'}, {'name': 'diesel', 'display_name': 'Diesel', 'icon': 'diesel'}, {'name': 'public_restrooms', 'display_name': 'Public Restrooms', 'icon': 'public_restrooms'}, {'name': 'coffee', 'display_name': 'Coffee', 'icon': 'coffee'}, {'name': 'froster', 'display_name': 'Froster', 'icon': 'froster'}, {'name': 'sloche', 'display_name': 'Sloche', 'icon': 'sloche'}]"
6000958,0,56 PORTAGE-DES-MOUSSES,PORT-CARTIER,50.0280000,-66.8583590,0,,Couche-Tard,OPEN,quebec,quebec,433.436405173984,CA,/store-locator/CA/port-cartier/56-portage-des-mousses/6000958,"[{'name': 'gas', 'display_name': 'Gas', 'icon': 'gas'}, {'name': 'public_restrooms', 'display_name': 'Public Restrooms', 'icon': 'public_restrooms'}, {'name': 'coffee', 'display_name': 'Coffee', 'icon': 'coffee'}, {'name': 'froster', 'display_name': 'Froster', 'icon': 'froster'}, {'name': 'sloche', 'display_name': 'Sloche', 'icon': 'sloche'}, {'name': 'pastries', 'display_name': 'Pastries', 'icon': 'pastries'}, {'name': 'hotdog', 'display_name': 'Hotdog', 'icon': 'hotdog'}]"
6002040,0,584 MAIN STREET,SHEDIAC,46.2245300,-64.5140940,0,,Couche-Tard,OPEN,quebec,quebec,437.7752447120758,CA,/store-locator/CA/shediac/584-main-street/6002040,"[{'name': 'gas', 'display_name': 'Gas', 'icon': 'gas'}, {'name': 'diesel', 'display_name': 'Diesel', 'icon': 'diesel'}, {'name': 'public_restrooms', 'display_name': 'Public Restrooms', 'icon': 'public_restrooms'}, {'name': 'coffee', 'display_name': 'Coffee', 'icon': 'coffee'}, {'name': 'froster', 'display_name': 'Froster', 'icon': 'froster'}, {'name': 'sloche', 'display_name': 'Sloche', 'icon': 'sloche'}]"
6002027,0,211 MAIN STREET,SACKVILLE,45.9078100,-64.3727700,0,,Couche-Tard,OPEN,quebec,quebec,445.08327031513,CA,/store-locator/CA/sackville/211-main-street/6002027,"[{'name': 'gas', 'display_name': 'Gas', 'icon': 'gas'}, {'name': 'diesel', 'display_name': 'Diesel', 'icon': 'diesel'}, {'name': 'public_restrooms', 'display_name': 'Public Restrooms', 'icon': 'public_restrooms'}, {'name': 'coffee', 'display_name': 'Coffee', 'icon': 'coffee'}, {'name': 'froster', 'display_name': 'Froster', 'icon': 'froster'}, {'name': 'sloche', 'display_name': 'Sloche', 'icon': 'sloche'}]"
6002071,0,5477 PROSPECT ROAD,NEW MINAS,45.0569400,-64.4705690,0,,Couche-Tard,OPEN,quebec,quebec,447.1981531051959,CA,/store-locator/CA/new-minas/5477-prospect-road/6002071,"[{'name': 'gas', 'display_name': 'Gas', 'icon': 'gas'}, {'name': 'diesel', 'display_name': 'Diesel', 'icon': 'diesel'}, {'name': 'public_restrooms', 'display_name': 'Public Restrooms', 'icon': 'public_restrooms'}, {'name': 'coffee', 'display_name': 'Coffee', 'icon': 'coffee'}, {'name': 'froster', 'display_name': 'Froster', 'icon': 'froster'}, {'name': 'sloche', 'display_name': 'Sloche', 'icon': 'sloche'}, {'name': 'hotdog', 'display_name': 'Hotdog', 'icon': 'hotdog'}]"
6002134,0,9319 COMMERCIAL STREET,NEW MINAS,45.0701200,-64.4419180,0,,Couche-Tard,OPEN,quebec,quebec,448.429758291811,CA,/store-locator/CA/new-minas/9319-commercial-street/6002134,"[{'name': 'gas', 'display_name': 'Gas', 'icon': 'gas'}, {'name': 'diesel', 'display_name': 'Diesel', 'icon': 'diesel'}, {'name': 'public_restrooms', 'display_name': 'Public Restrooms', 'icon': 'public_restrooms'}, {'name': 'coffee', 'display_name': 'Coffee', 'icon': 'coffee'}, {'name': 'froster', 'display_name': 'Froster', 'icon': 'froster'}, {'name': 'sloche', 'display_name': 'Sloche', 'icon': 'sloche'}, {'name': 'hotdog', 'display_name': 'Hotdog', 'icon': 'hotdog'}]"
6002039,0,2660 CHEMIN ACADIE,CAP PELE,46.2152940,-64.2698180,0,,Couche-Tard,OPEN,quebec,quebec,449.3822712972842,CA,/store-locator/CA/cap-pele/2660-chemin-acadie/6002039,"[{'name': 'gas', 'display_name': 'Gas', 'icon': 'gas'}, {'name': 'diesel', 'display_name': 'Diesel', 'icon': 'diesel'}, {'name': 'public_restrooms', 'display_name': 'Public Restrooms', 'icon': 'public_restrooms'}, {'name': 'coffee', 'display_name': 'Coffee', 'icon': 'coffee'}, {'name': 'froster', 'display_name': 'Froster', 'icon': 'froster'}, {'name': 'sloche', 'display_name': 'Sloche', 'icon': 'sloche'}, {'name': 'hotdog', 'display_name': 'Hotdog', 'icon': 'hotdog'}]"
6002047,0,170 AULAC ROAD,AULAC,45.8700370,-64.2794220,0,,Couche-Tard,OPEN,quebec,quebec,449.7102345228597,CA,/store-locator/CA/aulac/170-aulac-road/6002047,"[{'name': 'gas', 'display_name': 'Gas', 'icon': 'gas'}, {'name': 'diesel', 'display_name': 'Diesel', 'icon': 'diesel'}, {'name': 'public_restrooms', 'display_name': 'Public Restrooms', 'icon': 'public_restrooms'}, {'name': 'coffee', 'display_name': 'Coffee', 'icon': 'coffee'}, {'name': 'froster', 'display_name': 'Froster', 'icon': 'froster'}, {'name': 'sloche', 'display_name': 'Sloche', 'icon': 'sloche'}, {'name': 'hotdog', 'display_name': 'Hotdog', 'icon': 'hotdog'}]"
6002070,0,10095 HWY 1,GREENWICH,45.0837970,-64.3999310,0,,Couche-Tard,OPEN,quebec,quebec,450.3062042307102,CA,/store-locator/CA/greenwich/10095-hwy-1/6002070,"[{'name': 'gas', 'display_name': 'Gas', 'icon': 'gas'}, {'name': 'diesel', 'display_name': 'Diesel', 'icon': 'diesel'}, {'name': 'public_restrooms', 'display_name': 'Public Restrooms', 'icon': 'public_restrooms'}, {'name': 'coffee', 'display_name': 'Coffee', 'icon': 'coffee'}, {'name': 'froster', 'display_name': 'Froster', 'icon': 'froster'}, {'name': 'sloche', 'display_name': 'Sloche', 'icon': 'sloche'}, {'name': 'fresh_food_fast', 'display_name': 'Fresh Food Fast', 'icon': 'food'}, {'name': 'hotdog', 'display_name': 'Hotdog', 'icon': 'hotdog'}]"
6002073,0,169 BRISTOL AVENUE,LIVERPOOL,44.0456430,-64.7221380,0,,Couche-Tard,OPEN,quebec,quebec,452.7366329873573,CA,/store-locator/CA/liverpool/169-bristol-avenue/6002073,"[{'name': 'gas', 'display_name': 'Gas', 'icon': 'gas'}, {'name': 'diesel', 'display_name': 'Diesel', 'icon': 'diesel'}, {'name': 'public_restrooms', 'display_name': 'Public Restrooms', 'icon': 'public_restrooms'}, {'name': 'coffee', 'display_name': 'Coffee', 'icon': 'coffee'}, {'name': 'froster', 'display_name': 'Froster', 'icon': 'froster'}, {'name': 'sloche', 'display_name': 'Sloche', 'icon': 'sloche'}]"
6002048,0,213 SOUTH ALBION STREET,AMHERST,45.8119850,-64.2031640,0,,Couche-Tard,OPEN,quebec,quebec,453.63517268544496,CA,/store-locator/CA/amherst/213-south-albion-street/6002048,"[{'name': 'gas', 'display_name': 'Gas', 'icon': 'gas'}, {'name': 'diesel', 'display_name': 'Diesel', 'icon': 'diesel'}, {'name': 'public_restrooms', 'display_name': 'Public Restrooms', 'icon': 'public_restrooms'}, {'name': 'coffee', 'display_name': 'Coffee', 'icon': 'coffee'}, {'name': 'froster', 'display_name': 'Froster', 'icon': 'froster'}, {'name': 'sloche', 'display_name': 'Sloche', 'icon': 'sloche'}, {'name': 'hotdog', 'display_name': 'Hotdog', 'icon': 'hotdog'}]"
6000934,0,519 BOUL. R.LEVESQUE O. CP 248,CHANDLER,48.3474400,-64.7004810,0,,Couche-Tard,OPEN,quebec,quebec,454.141029891899,CA,/store-locator/CA/chandler/519-boul-r-levesque-o-cp-248/6000934,"[{'name': 'gas', 'display_name': 'Gas', 'icon': 'gas'}, {'name': 'diesel', 'display_name': 'Diesel', 'icon': 'diesel'}, {'name': 'public_restrooms', 'display_name': 'Public Restrooms', 'icon': 'public_restrooms'}, {'name': 'coffee', 'display_name': 'Coffee', 'icon': 'coffee'}, {'name': 'froster', 'display_name': 'Froster', 'icon': 'froster'}, {'name': 'sloche', 'display_name': 'Sloche', 'icon': 'sloche'}, {'name': 'pastries', 'display_name': 'Pastries', 'icon': 'pastries'}, {'name': 'hotdog', 'display_name': 'Hotdog', 'icon': 'hotdog'}]"
6002051,0,2742 HIGHWAY 325,WILEVILLE,44.3718570,-64.5379110,0,,Couche-Tard,OPEN,quebec,quebec,454.84456393448335,CA,/store-locator/CA/wileville/2742-highway-325/6002051,"[{'name': 'gas', 'display_name': 'Gas', 'icon': 'gas'}, {'name': 'diesel', 'display_name': 'Diesel', 'icon': 'diesel'}, {'name': 'public_restrooms', 'display_name': 'Public Restrooms', 'icon': 'public_restrooms'}, {'name': 'coffee', 'display_name': 'Coffee', 'icon': 'coffee'}, {'name': 'froster', 'display_name': 'Froster', 'icon': 'froster'}, {'name': 'sloche', 'display_name': 'Sloche', 'icon': 'sloche'}, {'name': 'fresh_food_fast', 'display_name': 'Fresh Food Fast', 'icon': 'food'}, {'name': 'hotdog', 'display_name': 'Hotdog', 'icon': 'hotdog'}]"
6002050,0,463 NORTH STREET,BRIDGEWATER,44.3916630,-64.5274710,0,,Couche-Tard,OPEN,quebec,quebec,454.97138265479464,CA,/store-locator/CA/bridgewater/463-north-street/6002050,"[{'name': 'gas', 'display_name': 'Gas', 'icon': 'gas'}, {'name': 'diesel', 'display_name': 'Diesel', 'icon': 'diesel'}, {'name': 'public_restrooms', 'display_name': 'Public Restrooms', 'icon': 'public_restrooms'}, {'name': 'coffee', 'display_name': 'Coffee', 'icon': 'coffee'}, {'name': 'froster', 'display_name': 'Froster', 'icon': 'froster'}, {'name': 'sloche', 'display_name': 'Sloche', 'icon': 'sloche'}, {'name': 'hotdog', 'display_name': 'Hotdog', 'icon': 'hotdog'}]"
6000962,0,646 BOUL. LAURE,SEPT-ILES,50.2163200,-66.3789130,0,,Couche-Tard,OPEN,quebec,quebec,456.71666318353874,CA,/store-locator/CA/sept-iles/646-boul-laure/6000962,"[{'name': 'gas', 'display_name': 'Gas', 'icon': 'gas'}, {'name': 'diesel', 'display_name': 'Diesel', 'icon': 'diesel'}, {'name': 'public_restrooms', 'display_name': 'Public Restrooms', 'icon': 'public_restrooms'}, {'name': 'coffee', 'display_name': 'Coffee', 'icon': 'coffee'}, {'name': 'froster', 'display_name': 'Froster', 'icon': 'froster'}, {'name': 'sloche', 'display_name': 'Sloche', 'icon': 'sloche'}]"
6000963,0,1114 BOUL. LAURE,SEPT-ILES,50.2310680,-66.3928160,0,,Couche-Tard,OPEN,quebec,quebec,456.94639532121676,CA,/store-locator/CA/sept-iles/1114-boul-laure/6000963,"[{'name': 'gas', 'display_name': 'Gas', 'icon': 'gas'}, {'name': 'diesel', 'display_name': 'Diesel', 'icon': 'diesel'}, {'name': 'public_restrooms', 'display_name': 'Public Restrooms', 'icon': 'public_restrooms'}, {'name': 'coffee', 'display_name': 'Coffee', 'icon': 'coffee'}, {'name': 'froster', 'display_name': 'Froster', 'icon': 'froster'}, {'name': 'sloche', 'display_name': 'Sloche', 'icon': 'sloche'}]"
6000959,0,2121 BOUL. LAURE,SEPT-ILES,50.2724800,-66.4156920,0,,Couche-Tard,OPEN,quebec,quebec,458.10518909869853,CA,/store-locator/CA/sept-iles/2121-boul-laure/6000959,"[{'name': 'gas', 'display_name': 'Gas', 'icon': 'gas'}, {'name': 'diesel', 'display_name': 'Diesel', 'icon': 'diesel'}, {'name': 'public_restrooms', 'display_name': 'Public Restrooms', 'icon': 'public_restrooms'}, {'name': 'coffee', 'display_name': 'Coffee', 'icon': 'coffee'}, {'name': 'froster', 'display_name': 'Froster', 'icon': 'froster'}, {'name': 'sloche', 'display_name': 'Sloche', 'icon': 'sloche'}, {'name': 'pastries', 'display_name': 'Pastries', 'icon': 'pastries'}, {'name': 'hotdog', 'display_name': 'Hotdog', 'icon': 'hotdog'}]"
6002072,0,33 EDGEWATER STREET,MAHONE BAY,44.4498600,-64.3806750,0,,Couche-Tard,OPEN,quebec,quebec,461.0233563044053,CA,/store-locator/CA/mahone-bay/33-edgewater-street/6002072,"[{'name': 'gas', 'display_name': 'Gas', 'icon': 'gas'}, {'name': 'diesel', 'display_name': 'Diesel', 'icon': 'diesel'}, {'name': 'public_restrooms', 'display_name': 'Public Restrooms', 'icon': 'public_restrooms'}, {'name': 'coffee', 'display_name': 'Coffee', 'icon': 'coffee'}, {'name': 'froster', 'display_name': 'Froster', 'icon': 'froster'}, {'name': 'sloche', 'display_name': 'Sloche', 'icon': 'sloche'}, {'name': 'hotdog', 'display_name': 'Hotdog', 'icon': 'hotdog'}]"
6002087,0,2113 HWY 1,FALMOUTH,44.9943580,-64.1482490,0,,Couche-Tard,OPEN,quebec,quebec,463.7051318128295,CA,/store-locator/CA/falmouth/2113-hwy-1/6002087,"[{'name': 'gas', 'display_name': 'Gas', 'icon': 'gas'}, {'name': 'diesel', 'display_name': 'Diesel', 'icon': 'diesel'}, {'name': 'public_restrooms', 'display_name': 'Public Restrooms', 'icon': 'public_restrooms'}, {'name': 'coffee', 'display_name': 'Coffee', 'icon': 'coffee'}, {'name': 'froster', 'display_name': 'Froster', 'icon': 'froster'}, {'name': 'sloche', 'display_name': 'Sloche', 'icon': 'sloche'}]"
6002049,0,150 VICTORIA STREET,LUNENBURG,44.3763000,-64.3254750,0,,Couche-Tard,OPEN,quebec,quebec,465.10160980133304,CA,/store-locator/CA/lunenburg/150-victoria-street/6002049,"[{'name': 'gas', 'display_name': 'Gas', 'icon': 'gas'}, {'name': 'diesel', 'display_name': 'Diesel', 'icon': 'diesel'}, {'name': 'public_restrooms', 'display_name': 'Public Restrooms', 'icon': 'public_restrooms'}, {'name': 'coffee', 'display_name': 'Coffee', 'icon': 'coffee'}, {'name': 'froster', 'display_name': 'Froster', 'icon': 'froster'}, {'name': 'sloche', 'display_name': 'Sloche', 'icon': 'sloche'}]"
6002086,0,4164 ROUTE 1,GARLANDS CROSSING,44.9744380,-64.1103490,0,,Couche-Tard,OPEN,quebec,quebec,465.8176590247366,CA,/store-locator/CA/garlands-crossing/4164-route-1/6002086,"[{'name': 'gas', 'display_name': 'Gas', 'icon': 'gas'}, {'name': 'diesel', 'display_name': 'Diesel', 'icon': 'diesel'}, {'name': 'public_restrooms', 'display_name': 'Public Restrooms', 'icon': 'public_restrooms'}, {'name': 'coffee', 'display_name': 'Coffee', 'icon': 'coffee'}, {'name': 'froster', 'display_name': 'Froster', 'icon': 'froster'}, {'name': 'sloche', 'display_name': 'Sloche', 'icon': 'sloche'}]"
6002082,0,4602 UPPER MAIN STREET,OXFORD,45.7256600,-63.8793910,0,,Couche-Tard,OPEN,quebec,quebec,469.69964582053314,CA,/store-locator/CA/oxford/4602-upper-main-street/6002082,"[{'name': 'gas', 'display_name': 'Gas', 'icon': 'gas'}, {'name': 'diesel', 'display_name': 'Diesel', 'icon': 'diesel'}, {'name': 'public_restrooms', 'display_name': 'Public Restrooms', 'icon': 'public_restrooms'}, {'name': 'coffee', 'display_name': 'Coffee', 'icon': 'coffee'}, {'name': 'froster', 'display_name': 'Froster', 'icon': 'froster'}, {'name': 'sloche', 'display_name': 'Sloche', 'icon': 'sloche'}]"
6002118,0,82 NORTH DRIVE,SUMMERSIDE,46.4250800,-63.8110440,0,,Couche-Tard,OPEN,quebec,quebec,471.1615247780037,CA,/store-locator/CA/summerside/82-north-drive/6002118,"[{'name': 'gas', 'display_name': 'Gas', 'icon': 'gas'}, {'name': 'diesel', 'display_name': 'Diesel', 'icon': 'diesel'}, {'name': 'public_restrooms', 'display_name': 'Public Restrooms', 'icon': 'public_restrooms'}, {'name': 'coffee', 'display_name': 'Coffee', 'icon': 'coffee'}, {'name': 'froster', 'display_name': 'Froster', 'icon': 'froster'}, {'name': 'sloche', 'display_name': 'Sloche', 'icon': 'sloche'}]"
6002125,0,96 WATER STREET,SUMMERSIDE,46.3901700,-63.7824400,0,,Couche-Tard,OPEN,quebec,quebec,472.48720544190917,CA,/store-locator/CA/summerside/96-water-street/6002125,"[{'name': 'gas', 'display_name': 'Gas', 'icon': 'gas'}, {'name': 'diesel', 'display_name': 'Diesel', 'icon': 'diesel'}, {'name': 'public_restrooms', 'display_name': 'Public Restrooms', 'icon': 'public_restrooms'}, {'name': 'coffee', 'display_name': 'Coffee', 'icon': 'coffee'}, {'name': 'froster', 'display_name': 'Froster', 'icon': 'froster'}, {'name': 'sloche', 'display_name': 'Sloche', 'icon': 'sloche'}]"
6000933,0,31 YORK EST CP 2241,GASPE,48.8232050,-64.4778810,0,,Couche-Tard,OPEN,quebec,quebec,474.832123588203,CA,/store-locator/CA/gaspe/31-york-est-cp-2241/6000933,"[{'name': 'gas', 'display_name': 'Gas', 'icon': 'gas'}, {'name': 'diesel', 'display_name': 'Diesel', 'icon': 'diesel'}, {'name': 'public_restrooms', 'display_name': 'Public Restrooms', 'icon': 'public_restrooms'}, {'name': 'coffee', 'display_name': 'Coffee', 'icon': 'coffee'}, {'name': 'froster', 'display_name': 'Froster', 'icon': 'froster'}, {'name': 'sloche', 'display_name': 'Sloche', 'icon': 'sloche'}, {'name': 'hotdog', 'display_name': 'Hotdog', 'icon': 'hotdog'}]"
6002053,0,5210 ROUTE 333,TANTALLON,44.6881160,-63.8800630,0,,Couche-Tard,OPEN,quebec,quebec,481.2993566256912,CA,/store-locator/CA/tantallon/5210-route-333/6002053,"[{'name': 'gas', 'display_name': 'Gas', 'icon': 'gas'}, {'name': 'diesel', 'display_name': 'Diesel', 'icon': 'diesel'}, {'name': 'public_restrooms', 'display_name': 'Public Restrooms', 'icon': 'public_restrooms'}, {'name': 'coffee', 'display_name': 'Coffee', 'icon': 'coffee'}, {'name': 'froster', 'display_name': 'Froster', 'icon': 'froster'}, {'name': 'sloche', 'display_name': 'Sloche', 'icon': 'sloche'}, {'name': 'fresh_food_fast', 'display_name': 'Fresh Food Fast', 'icon': 'food'}, {'name': 'hotdog', 'display_name': 'Hotdog', 'icon': 'hotdog'}]"
6002058,0,31 ROUTE 1,MOUNT UNIACKE,44.8456150,-63.8014240,0,,Couche-Tard,OPEN,quebec,quebec,482.69718850656653,CA,/store-locator/CA/mount-uniacke/31-route-1/6002058,"[{'name': 'gas', 'display_name': 'Gas', 'icon': 'gas'}, {'name': 'diesel', 'display_name': 'Diesel', 'icon': 'diesel'}, {'name': 'public_restrooms', 'display_name': 'Public Restrooms', 'icon': 'public_restrooms'}, {'name': 'coffee', 'display_name': 'Coffee', 'icon': 'coffee'}, {'name': 'froster', 'display_name': 'Froster', 'icon': 'froster'}, {'name': 'sloche', 'display_name': 'Sloche', 'icon': 'sloche'}, {'name': 'hotdog', 'display_name': 'Hotdog', 'icon': 'hotdog'}]"
6002065,0,2200 HAMMONDS PLAINS RD.,HAMMONDS PLAIN,44.7349660,-63.7915230,0,,Couche-Tard,OPEN,quebec,quebec,484.87005555480397,CA,/store-locator/CA/hammonds-plain/2200-hammonds-plains-rd/6002065,"[{'name': 'gas', 'display_name': 'Gas', 'icon': 'gas'}, {'name': 'diesel', 'display_name': 'Diesel', 'icon': 'diesel'}, {'name': 'public_restrooms', 'display_name': 'Public Restrooms', 'icon': 'public_restrooms'}, {'name': 'coffee', 'display_name': 'Coffee', 'icon': 'coffee'}, {'name': 'froster', 'display_name': 'Froster', 'icon': 'froster'}, {'name': 'sloche', 'display_name': 'Sloche', 'icon': 'sloche'}]"
6002067,0,857 SACKVILLE DR,LOWER SACKVILLE,44.7763670,-63.6951380,0,,Couche-Tard,OPEN,quebec,quebec,488.92757214382885,CA,/store-locator/CA/lower-sackville/857-sackville-dr/6002067,"[{'name': 'gas', 'display_name': 'Gas', 'icon': 'gas'}, {'name': 'diesel', 'display_name': 'Diesel', 'icon': 'diesel'}, {'name': 'public_restrooms', 'display_name': 'Public Restrooms', 'icon': 'public_restrooms'}, {'name': 'coffee', 'display_name': 'Coffee', 'icon': 'coffee'}, {'name': 'froster', 'display_name': 'Froster', 'icon': 'froster'}, {'name': 'sloche', 'display_name': 'Sloche', 'icon': 'sloche'}]"
6002137,0,30 GARY MARTIN DR,BEDFORD,44.7258200,-63.7025850,0,,Couche-Tard,OPEN,quebec,quebec,489.3552510150548,CA,/store-locator/CA/bedford/30-gary-martin-dr/6002137,"[{'name': 'gas', 'display_name': 'Gas', 'icon': 'gas'}, {'name': 'diesel', 'display_name': 'Diesel', 'icon': 'diesel'}, {'name': 'public_restrooms', 'display_name': 'Public Restrooms', 'icon': 'public_restrooms'}, {'name': 'coffee', 'display_name': 'Coffee', 'icon': 'coffee'}, {'name': 'froster', 'display_name': 'Froster', 'icon': 'froster'}, {'name': 'sloche', 'display_name': 'Sloche', 'icon': 'sloche'}, {'name': 'hotdog', 'display_name': 'Hotdog', 'icon': 'hotdog'}]"
6002520,0,220 COBEQUID ROAD,LOWER SACKVILLE,44.7603030,-63.6599360,0,,Couche-Tard,OPEN,quebec,quebec,490.89436825343336,CA,/store-locator/CA/lower-sackville/220-cobequid-road/6002520,"[{'name': 'car_wash', 'display_name': 'Car Wash', 'icon': 'car_wash'}, {'name': 'gas', 'display_name': 'Gas', 'icon': 'gas'}, {'name': 'diesel', 'display_name': 'Diesel', 'icon': 'diesel'}, {'name': 'public_restrooms', 'display_name': 'Public Restrooms', 'icon': 'public_restrooms'}, {'name': 'coffee', 'display_name': 'Coffee', 'icon': 'coffee'}, {'name': 'froster', 'display_name': 'Froster', 'icon': 'froster'}, {'name': 'sloche', 'display_name': 'Sloche', 'icon': 'sloche'}, {'name': 'hotdog', 'display_name': 'Hotdog', 'icon': 'hotdog'}]"
6002064,0,122 KEARNY LAKE ROAD,HALIFAX,44.6837120,-63.6745890,0,,Couche-Tard,OPEN,quebec,quebec,491.39875640822675,CA,/store-locator/CA/halifax/122-kearny-lake-road/6002064,"[{'name': 'gas', 'display_name': 'Gas', 'icon': 'gas'}, {'name': 'diesel', 'display_name': 'Diesel', 'icon': 'diesel'}, {'name': 'public_restrooms', 'display_name': 'Public Restrooms', 'icon': 'public_restrooms'}, {'name': 'coffee', 'display_name': 'Coffee', 'icon': 'coffee'}, {'name': 'froster', 'display_name': 'Froster', 'icon': 'froster'}, {'name': 'sloche', 'display_name': 'Sloche', 'icon': 'sloche'}]"
6002061,0,15 FAIRFAX DRIVE,HALIFAX,44.6611560,-63.6721080,0,,Couche-Tard,OPEN,quebec,quebec,491.88927596530345,CA,/store-locator/CA/halifax/15-fairfax-drive/6002061,"[{'name': 'gas', 'display_name': 'Gas', 'icon': 'gas'}, {'name': 'diesel', 'display_name': 'Diesel', 'icon': 'diesel'}, {'name': 'public_restrooms', 'display_name': 'Public Restrooms', 'icon': 'public_restrooms'}, {'name': 'coffee', 'display_name': 'Coffee', 'icon': 'coffee'}, {'name': 'froster', 'display_name': 'Froster', 'icon': 'froster'}, {'name': 'sloche', 'display_name': 'Sloche', 'icon': 'sloche'}, {'name': 'hotdog', 'display_name': 'Hotdog', 'icon': 'hotdog'}]"
6002059,0,1075 ST MARGARETS BAY ROAD,BEECHVILLE,44.6362800,-63.6777040,0,,Couche-Tard,OPEN,quebec,quebec,492.02893751536965,CA,/store-locator/CA/beechville/1075-st-margarets-bay-road/6002059,"[{'name': 'gas', 'display_name': 'Gas', 'icon': 'gas'}, {'name': 'diesel', 'display_name': 'Diesel', 'icon': 'diesel'}, {'name': 'public_restrooms', 'display_name': 'Public Restrooms', 'icon': 'public_restrooms'}, {'name': 'coffee', 'display_name': 'Coffee', 'icon': 'coffee'}, {'name': 'froster', 'display_name': 'Froster', 'icon': 'froster'}, {'name': 'sloche', 'display_name': 'Sloche', 'icon': 'sloche'}, {'name': 'hotdog', 'display_name': 'Hotdog', 'icon': 'hotdog'}]"
6002060,0,389 BEDFORD HWY,HALIFAX,44.6836170,-63.6605730,0,,Couche-Tard,OPEN,quebec,quebec,492.08443428874773,CA,/store-locator/CA/halifax/389-bedford-hwy/6002060,"[{'name': 'gas', 'display_name': 'Gas', 'icon': 'gas'}, {'name': 'diesel', 'display_name': 'Diesel', 'icon': 'diesel'}, {'name': 'public_restrooms', 'display_name': 'Public Restrooms', 'icon': 'public_restrooms'}, {'name': 'coffee', 'display_name': 'Coffee', 'icon': 'coffee'}, {'name': 'froster', 'display_name': 'Froster', 'icon': 'froster'}, {'name': 'sloche', 'display_name': 'Sloche', 'icon': 'sloche'}]"
6002513,0,280 LACEWOOD DR.,H.R.M. (HALIFAX),44.6620060,-63.6568150,0,,Couche-Tard,OPEN,quebec,quebec,492.62175618566033,CA,/store-locator/CA/h-r-m-halifax/280-lacewood-dr/6002513,"[{'name': 'car_wash', 'display_name': 'Car Wash', 'icon': 'car_wash'}, {'name': 'gas', 'display_name': 'Gas', 'icon': 'gas'}, {'name': 'diesel', 'display_name': 'Diesel', 'icon': 'diesel'}, {'name': 'public_restrooms', 'display_name': 'Public Restrooms', 'icon': 'public_restrooms'}, {'name': 'coffee', 'display_name': 'Coffee', 'icon': 'coffee'}, {'name': 'froster', 'display_name': 'Froster', 'icon': 'froster'}, {'name': 'sloche', 'display_name': 'Sloche', 'icon': 'sloche'}]"
6002062,0,599 PROSPECT ROAD,HALIFAX,44.6079030,-63.6727760,0,,Couche-Tard,OPEN,quebec,quebec,492.7472966239869,CA,/store-locator/CA/halifax/599-prospect-road/6002062,"[{'name': 'gas', 'display_name': 'Gas', 'icon': 'gas'}, {'name': 'public_restrooms', 'display_name': 'Public Restrooms', 'icon': 'public_restrooms'}, {'name': 'coffee', 'display_name': 'Coffee', 'icon': 'coffee'}, {'name': 'froster', 'display_name': 'Froster', 'icon': 'froster'}, {'name': 'sloche', 'display_name': 'Sloche', 'icon': 'sloche'}, {'name': 'hotdog', 'display_name': 'Hotdog', 'icon': 'hotdog'}]"
6002117,0,19782 MALPEQUE ROAD,HUNTER RIVER,46.3555340,-63.3493730,0,,Couche-Tard,OPEN,quebec,quebec,492.9737384189196,CA,/store-locator/CA/hunter-river/19782-malpeque-road/6002117,"[{'name': 'gas', 'display_name': 'Gas', 'icon': 'gas'}, {'name': 'diesel', 'display_name': 'Diesel', 'icon': 'diesel'}, {'name': 'public_restrooms', 'display_name': 'Public Restrooms', 'icon': 'public_restrooms'}, {'name': 'coffee', 'display_name': 'Coffee', 'icon': 'coffee'}, {'name': 'froster', 'display_name': 'Froster', 'icon': 'froster'}, {'name': 'sloche', 'display_name': 'Sloche', 'icon': 'sloche'}, {'name': 'hotdog', 'display_name': 'Hotdog', 'icon': 'hotdog'}]"
6002056,0,2599 ROCKY LAKE ROAD,WAVERLEY,44.7854270,-63.5979840,0,,Couche-Tard,OPEN,quebec,quebec,493.52938527755384,CA,/store-locator/CA/waverley/2599-rocky-lake-road/6002056,"[{'name': 'gas', 'display_name': 'Gas', 'icon': 'gas'}, {'name': 'public_restrooms', 'display_name': 'Public Restrooms', 'icon': 'public_restrooms'}, {'name': 'coffee', 'display_name': 'Coffee', 'icon': 'coffee'}, {'name': 'froster', 'display_name': 'Froster', 'icon': 'froster'}, {'name': 'sloche', 'display_name': 'Sloche', 'icon': 'sloche'}]"
6002079,0,6757 HWY # 2,ENFIELD,44.9275170,-63.5370650,0,,Couche-Tard,OPEN,quebec,quebec,494.4126092762254,CA,/store-locator/CA/enfield/6757-hwy-2/6002079,"[{'name': 'gas', 'display_name': 'Gas', 'icon': 'gas'}, {'name': 'diesel', 'display_name': 'Diesel', 'icon': 'diesel'}, {'name': 'public_restrooms', 'display_name': 'Public Restrooms', 'icon': 'public_restrooms'}, {'name': 'coffee', 'display_name': 'Coffee', 'icon': 'coffee'}, {'name': 'froster', 'display_name': 'Froster', 'icon': 'froster'}, {'name': 'sloche', 'display_name': 'Sloche', 'icon': 'sloche'}, {'name': 'fresh_food_fast', 'display_name': 'Fresh Food Fast', 'icon': 'food'}, {'name': 'hotdog', 'display_name': 'Hotdog', 'icon': 'hotdog'}]"
6002066,0,626 WINDMILL ROAD,DARTMOUTH,44.6982460,-63.6041990,0,,Couche-Tard,OPEN,quebec,quebec,494.59902770893564,CA,/store-locator/CA/dartmouth/626-windmill-road/6002066,"[{'name': 'gas', 'display_name': 'Gas', 'icon': 'gas'}, {'name': 'diesel', 'display_name': 'Diesel', 'icon': 'diesel'}, {'name': 'public_restrooms', 'display_name': 'Public Restrooms', 'icon': 'public_restrooms'}, {'name': 'coffee', 'display_name': 'Coffee', 'icon': 'coffee'}, {'name': 'froster', 'display_name': 'Froster', 'icon': 'froster'}, {'name': 'sloche', 'display_name': 'Sloche', 'icon': 'sloche'}]"
6002055,0,503 OLD SAMBRO ROAD,HALIFAX,44.5940600,-63.6388340,0,,Couche-Tard,OPEN,quebec,quebec,494.6398990078247,CA,/store-locator/CA/halifax/503-old-sambro-road/6002055,"[{'name': 'gas', 'display_name': 'Gas', 'icon': 'gas'}, {'name': 'diesel', 'display_name': 'Diesel', 'icon': 'diesel'}, {'name': 'public_restrooms', 'display_name': 'Public Restrooms', 'icon': 'public_restrooms'}, {'name': 'coffee', 'display_name': 'Coffee', 'icon': 'coffee'}, {'name': 'froster', 'display_name': 'Froster', 'icon': 'froster'}, {'name': 'sloche', 'display_name': 'Sloche', 'icon': 'sloche'}]"
6002514,0,173 HERRING COVE ROAD,H.R.M. (HALIFAX),44.6259900,-63.6173240,0,,Couche-Tard,OPEN,quebec,quebec,495.1487831167911,CA,/store-locator/CA/h-r-m-halifax/173-herring-cove-road/6002514,"[{'name': 'gas', 'display_name': 'Gas', 'icon': 'gas'}, {'name': 'diesel', 'display_name': 'Diesel', 'icon': 'diesel'}, {'name': 'public_restrooms', 'display_name': 'Public Restrooms', 'icon': 'public_restrooms'}, {'name': 'froster', 'display_name': 'Froster', 'icon': 'froster'}, {'name': 'sloche', 'display_name': 'Sloche', 'icon': 'sloche'}]"
6002085,0,248 HIGHWAY #214,ELMSDALE,44.9750300,-63.5077650,0,,Couche-Tard,OPEN,quebec,quebec,495.18388841887776,CA,/store-locator/CA/elmsdale/248-highway-214/6002085,"[{'name': 'gas', 'display_name': 'Gas', 'icon': 'gas'}, {'name': 'public_restrooms', 'display_name': 'Public Restrooms', 'icon': 'public_restrooms'}, {'name': 'coffee', 'display_name': 'Coffee', 'icon': 'coffee'}, {'name': 'froster', 'display_name': 'Froster', 'icon': 'froster'}, {'name': 'sloche', 'display_name': 'Sloche', 'icon': 'sloche'}]"
6002057,0,6515 QUINPOOL RD,HALIFAX,44.6438060,-63.6035920,0,,Couche-Tard,OPEN,quebec,quebec,495.5212026034878,CA,/store-locator/CA/halifax/6515-quinpool-rd/6002057,"[{'name': 'gas', 'display_name': 'Gas', 'icon': 'gas'}, {'name': 'public_restrooms', 'display_name': 'Public Restrooms', 'icon': 'public_restrooms'}, {'name': 'coffee', 'display_name': 'Coffee', 'icon': 'coffee'}, {'name': 'froster', 'display_name': 'Froster', 'icon': 'froster'}, {'name': 'sloche', 'display_name': 'Sloche', 'icon': 'sloche'}]"
6002516,0,10 HIGHFIELD PARK DRIVE,DARTMOUTH,44.6910970,-63.5847140,0,,Couche-Tard,OPEN,quebec,quebec,495.6658524328639,CA,/store-locator/CA/dartmouth/10-highfield-park-drive/6002516,"[{'name': 'car_wash', 'display_name': 'Car Wash', 'icon': 'car_wash'}, {'name': 'gas', 'display_name': 'Gas', 'icon': 'gas'}, {'name': 'diesel', 'display_name': 'Diesel', 'icon': 'diesel'}, {'name': 'public_restrooms', 'display_name': 'Public Restrooms', 'icon': 'public_restrooms'}, {'name': 'coffee', 'display_name': 'Coffee', 'icon': 'coffee'}, {'name': 'froster', 'display_name': 'Froster', 'icon': 'froster'}, {'name': 'sloche', 'display_name': 'Sloche', 'icon': 'sloche'}, {'name': 'hotdog', 'display_name': 'Hotdog', 'icon': 'hotdog'}]"
6002054,0,2499 ROBIE ST,HALIFAX,44.6530900,-63.5932670,0,,Couche-Tard,OPEN,quebec,quebec,495.8711225841099,CA,/store-locator/CA/halifax/2499-robie-st/6002054,"[{'name': 'car_wash', 'display_name': 'Car Wash', 'icon': 'car_wash'}, {'name': 'gas', 'display_name': 'Gas', 'icon': 'gas'}, {'name': 'diesel', 'display_name': 'Diesel', 'icon': 'diesel'}, {'name': 'public_restrooms', 'display_name': 'Public Restrooms', 'icon': 'public_restrooms'}, {'name': 'coffee', 'display_name': 'Coffee', 'icon': 'coffee'}, {'name': 'froster', 'display_name': 'Froster', 'icon': 'froster'}, {'name': 'sloche', 'display_name': 'Sloche', 'icon': 'sloche'}, {'name': 'hotdog', 'display_name': 'Hotdog', 'icon': 'hotdog'}]"
6002518,0,220 VICTORIA RD.,H.R.M.(DARTMOUTH),44.6774370,-63.5801700,0,,Couche-Tard,OPEN,quebec,quebec,496.1100069400929,CA,/store-locator/CA/h-r-m-dartmouth/220-victoria-rd/6002518,"[{'name': 'gas', 'display_name': 'Gas', 'icon': 'gas'}, {'name': 'public_restrooms', 'display_name': 'Public Restrooms', 'icon': 'public_restrooms'}, {'name': 'coffee', 'display_name': 'Coffee', 'icon': 'coffee'}, {'name': 'froster', 'display_name': 'Froster', 'icon': 'froster'}, {'name': 'sloche', 'display_name': 'Sloche', 'icon': 'sloche'}]"
6002511,0,229 COUNTRYVIEW DRIVE,DARTMOUTH,44.7067400,-63.5639460,0,,Couche-Tard,OPEN,quebec,quebec,496.42711060057724,CA,/store-locator/CA/dartmouth/229-countryview-drive/6002511,"[{'name': 'car_wash', 'display_name': 'Car Wash', 'icon': 'car_wash'}, {'name': 'gas', 'display_name': 'Gas', 'icon': 'gas'}, {'name': 'diesel', 'display_name': 'Diesel', 'icon': 'diesel'}, {'name': 'public_restrooms', 'display_name': 'Public Restrooms', 'icon': 'public_restrooms'}, {'name': 'coffee', 'display_name': 'Coffee', 'icon': 'coffee'}, {'name': 'froster', 'display_name': 'Froster', 'icon': 'froster'}, {'name': 'sloche', 'display_name': 'Sloche', 'icon': 'sloche'}]"
6002515,0,5450 INGLIS STREET,HALIFAX,44.6353530,-63.5714460,0,,Couche-Tard,OPEN,quebec,quebec,497.2315321648787,CA,/store-locator/CA/halifax/5450-inglis-street/6002515,"[{'name': 'gas', 'display_name': 'Gas', 'icon': 'gas'}, {'name': 'public_restrooms', 'display_name': 'Public Restrooms', 'icon': 'public_restrooms'}, {'name': 'coffee', 'display_name': 'Coffee', 'icon': 'coffee'}, {'name': 'froster', 'display_name': 'Froster', 'icon': 'froster'}, {'name': 'sloche', 'display_name': 'Sloche', 'icon': 'sloche'}, {'name': 'hotdog', 'display_name': 'Hotdog', 'icon': 'hotdog'}]"
6002069,0,200 WAVERLY BLVD,DARTMOUTH,44.6927640,-63.5456300,0,,Couche-Tard,OPEN,quebec,quebec,497.54677771396564,CA,/store-locator/CA/dartmouth/200-waverly-blvd/6002069,"[{'name': 'gas', 'display_name': 'Gas', 'icon': 'gas'}, {'name': 'public_restrooms', 'display_name': 'Public Restrooms', 'icon': 'public_restrooms'}, {'name': 'coffee', 'display_name': 'Coffee', 'icon': 'coffee'}, {'name': 'froster', 'display_name': 'Froster', 'icon': 'froster'}, {'name': 'sloche', 'display_name': 'Sloche', 'icon': 'sloche'}]"
6002512,0,219 PLEASANT STREET,H.R.M. (DARTMOUTH),44.6592750,-63.5504500,0,,Couche-Tard,OPEN,quebec,quebec,497.8591464079282,CA,/store-locator/CA/h-r-m-dartmouth/219-pleasant-street/6002512,"[{'name': 'gas', 'display_name': 'Gas', 'icon': 'gas'}, {'name': 'diesel', 'display_name': 'Diesel', 'icon': 'diesel'}, {'name': 'public_restrooms', 'display_name': 'Public Restrooms', 'icon': 'public_restrooms'}, {'name': 'coffee', 'display_name': 'Coffee', 'icon': 'coffee'}, {'name': 'froster', 'display_name': 'Froster', 'icon': 'froster'}, {'name': 'sloche', 'display_name': 'Sloche', 'icon': 'sloche'}]"
6002517,0,581 PORTLAND STREET,H.R.M.(DARTMOUTH),44.6714100,-63.5331890,0,,Couche-Tard,OPEN,quebec,quebec,498.50219814665735,CA,/store-locator/CA/h-r-m-dartmouth/581-portland-street/6002517,"[{'name': 'gas', 'display_name': 'Gas', 'icon': 'gas'}, {'name': 'public_restrooms', 'display_name': 'Public Restrooms', 'icon': 'public_restrooms'}, {'name': 'coffee', 'display_name': 'Coffee', 'icon': 'coffee'}, {'name': 'froster', 'display_name': 'Froster', 'icon': 'froster'}, {'name': 'sloche', 'display_name': 'Sloche', 'icon': 'sloche'}]"
6002510,0,575  MAIN STREET,DARTMOUTH,44.6939130,-63.5011390,0,,Couche-Tard,OPEN,quebec,quebec,499.7001662836337,CA,/store-locator/CA/dartmouth/575-main-street/6002510,"[{'name': 'gas', 'display_name': 'Gas', 'icon': 'gas'}, {'name': 'diesel', 'display_name': 'Diesel', 'icon': 'diesel'}, {'name': 'public_restrooms', 'display_name': 'Public Restrooms', 'icon': 'public_restrooms'}, {'name': 'coffee', 'display_name': 'Coffee', 'icon': 'coffee'}, {'name': 'froster', 'display_name': 'Froster', 'icon': 'froster'}, {'name': 'sloche', 'display_name': 'Sloche', 'icon': 'sloche'}, {'name': 'hotdog', 'display_name': 'Hotdog', 'icon': 'hotdog'}]"
6002084,0,7 ROBIE STREET,TRURO,45.3679770,-63.3178300,0,,Couche-Tard,OPEN,quebec,quebec,499.7734175630941,CA,/store-locator/CA/truro/7-robie-street/6002084,"[{'name': 'gas', 'display_name': 'Gas', 'icon': 'gas'}, {'name': 'diesel', 'display_name': 'Diesel', 'icon': 'diesel'}, {'name': 'public_restrooms', 'display_name': 'Public Restrooms', 'icon': 'public_restrooms'}, {'name': 'coffee', 'display_name': 'Coffee', 'icon': 'coffee'}, {'name': 'froster', 'display_name': 'Froster', 'icon': 'froster'}, {'name': 'sloche', 'display_name': 'Sloche', 'icon': 'sloche'}, {'name': 'hotdog', 'display_name': 'Hotdog', 'icon': 'hotdog'}]"
6002083,0,86 CONNECTOR ROAD,TRURO,45.3496130,-63.3108390,0,,Couche-Tard,OPEN,quebec,quebec,500.2992874711863,CA,/store-locator/CA/truro/86-connector-road/6002083,"[{'name': 'gas', 'display_name': 'Gas', 'icon': 'gas'}, {'name': 'diesel', 'display_name': 'Diesel', 'icon': 'diesel'}, {'name': 'public_restrooms', 'display_name': 'Public Restrooms', 'icon': 'public_restrooms'}, {'name': 'coffee', 'display_name': 'Coffee', 'icon': 'coffee'}, {'name': 'froster', 'display_name': 'Froster', 'icon': 'froster'}, {'name': 'sloche', 'display_name': 'Sloche', 'icon': 'sloche'}]"
6002068,0,1207 COLE HARBOUR ROAD,COLE HARBOUR,44.6730400,-63.4810830,0,,Couche-Tard,OPEN,quebec,quebec,501.01939004291677,CA,/store-locator/CA/cole-harbour/1207-cole-harbour-road/6002068,"[{'name': 'gas', 'display_name': 'Gas', 'icon': 'gas'}, {'name': 'diesel', 'display_name': 'Diesel', 'icon': 'diesel'}, {'name': 'public_restrooms', 'display_name': 'Public Restrooms', 'icon': 'public_restrooms'}, {'name': 'coffee', 'display_name': 'Coffee', 'icon': 'coffee'}, {'name': 'froster', 'display_name': 'Froster', 'icon': 'froster'}, {'name': 'sloche', 'display_name': 'Sloche', 'icon': 'sloche'}, {'name': 'hotdog', 'display_name': 'Hotdog', 'icon': 'hotdog'}]"
6002521,0,141 WILLOW STREET,TRURO,45.3606400,-63.2890960,0,,Couche-Tard,OPEN,quebec,quebec,501.2424651062203,CA,/store-locator/CA/truro/141-willow-street/6002521,"[{'name': 'gas', 'display_name': 'Gas', 'icon': 'gas'}, {'name': 'diesel', 'display_name': 'Diesel', 'icon': 'diesel'}, {'name': 'public_restrooms', 'display_name': 'Public Restrooms', 'icon': 'public_restrooms'}, {'name': 'coffee', 'display_name': 'Coffee', 'icon': 'coffee'}, {'name': 'froster', 'display_name': 'Froster', 'icon': 'froster'}, {'name': 'sloche', 'display_name': 'Sloche', 'icon': 'sloche'}, {'name': 'hotdog', 'display_name': 'Hotdog', 'icon': 'hotdog'}]"
6002063,0,72 COW BAY ROAD,HALIFAX,44.6128850,-63.4901720,0,,Couche-Tard,OPEN,quebec,quebec,501.57756489422815,CA,/store-locator/CA/halifax/72-cow-bay-road/6002063,"[{'name': 'gas', 'display_name': 'Gas', 'icon': 'gas'}, {'name': 'diesel', 'display_name': 'Diesel', 'icon': 'diesel'}, {'name': 'public_restrooms', 'display_name': 'Public Restrooms', 'icon': 'public_restrooms'}, {'name': 'coffee', 'display_name': 'Coffee', 'icon': 'coffee'}, {'name': 'froster', 'display_name': 'Froster', 'icon': 'froster'}, {'name': 'sloche', 'display_name': 'Sloche', 'icon': 'sloche'}, {'name': 'hotdog', 'display_name': 'Hotdog', 'icon': 'hotdog'}]"
6002509,0,30 MAIN STREET,BIBLE HILL (TRURO),45.3690000,-63.2722930,0,,Couche-Tard,OPEN,quebec,quebec,501.9735213427487,CA,/store-locator/CA/bible-hill-truro/30-main-street/6002509,"[{'name': 'gas', 'display_name': 'Gas', 'icon': 'gas'}, {'name': 'public_restrooms', 'display_name': 'Public Restrooms', 'icon': 'public_restrooms'}, {'name': 'coffee', 'display_name': 'Coffee', 'icon': 'coffee'}, {'name': 'froster', 'display_name': 'Froster', 'icon': 'froster'}, {'name': 'sloche', 'display_name': 'Sloche', 'icon': 'sloche'}]"
6002115,0,76 PETERS RD,CHARLOTTETOWN,46.2522130,-63.1210220,0,,Couche-Tard,OPEN,quebec,quebec,503.93668137861573,CA,/store-locator/CA/charlottetown/76-peters-rd/6002115,"[{'name': 'gas', 'display_name': 'Gas', 'icon': 'gas'}, {'name': 'diesel', 'display_name': 'Diesel', 'icon': 'diesel'}, {'name': 'public_restrooms', 'display_name': 'Public Restrooms', 'icon': 'public_restrooms'}, {'name': 'coffee', 'display_name': 'Coffee', 'icon': 'coffee'}, {'name': 'froster', 'display_name': 'Froster', 'icon': 'froster'}, {'name': 'sloche', 'display_name': 'Sloche', 'icon': 'sloche'}]"
6002505,0,154 ST.PETER'S ROAD,SHERWOOD,46.2607800,-63.1183560,0,,Couche-Tard,OPEN,quebec,quebec,504.0471293531357,CA,/store-locator/CA/sherwood/154-st-peter-s-road/6002505,"[{'name': 'gas', 'display_name': 'Gas', 'icon': 'gas'}, {'name': 'public_restrooms', 'display_name': 'Public Restrooms', 'icon': 'public_restrooms'}, {'name': 'coffee', 'display_name': 'Coffee', 'icon': 'coffee'}, {'name': 'froster', 'display_name': 'Froster', 'icon': 'froster'}, {'name': 'sloche', 'display_name': 'Sloche', 'icon': 'sloche'}]"
6002116,0,8 RIVERSIDE DRIVE,CHARLOTTETOWN,46.2438300,-63.1127120,0,,Couche-Tard,OPEN,quebec,quebec,504.3482981098148,CA,/store-locator/CA/charlottetown/8-riverside-drive/6002116,"[{'name': 'gas', 'display_name': 'Gas', 'icon': 'gas'}, {'name': 'diesel', 'display_name': 'Diesel', 'icon': 'diesel'}, {'name': 'public_restrooms', 'display_name': 'Public Restrooms', 'icon': 'public_restrooms'}, {'name': 'coffee', 'display_name': 'Coffee', 'icon': 'coffee'}, {'name': 'froster', 'display_name': 'Froster', 'icon': 'froster'}, {'name': 'sloche', 'display_name': 'Sloche', 'icon': 'sloche'}]"
6002519,0,5204 HIGHWAY 7,PORTERS  LAKE,44.7441370,-63.2850060,0,,Couche-Tard,OPEN,quebec,quebec,509.44960572167736,CA,/store-locator/CA/porters-lake/5204-highway-7/6002519,"[{'name': 'gas', 'display_name': 'Gas', 'icon': 'gas'}, {'name': 'diesel', 'display_name': 'Diesel', 'icon': 'diesel'}, {'name': 'public_restrooms', 'display_name': 'Public Restrooms', 'icon': 'public_restrooms'}, {'name': 'coffee', 'display_name': 'Coffee', 'icon': 'coffee'}, {'name': 'froster', 'display_name': 'Froster', 'icon': 'froster'}, {'name': 'sloche', 'display_name': 'Sloche', 'icon': 'sloche'}, {'name': 'pastries', 'display_name': 'Pastries', 'icon': 'pastries'}, {'name': 'hotdog', 'display_name': 'Hotdog', 'icon': 'hotdog'}]"
6002076,0,2500 OLD TRURO HWY,WESTVILLE,45.5765880,-62.7259740,0,,Couche-Tard,OPEN,quebec,quebec,526.5043085750842,CA,/store-locator/CA/westville/2500-old-truro-hwy/6002076,"[{'name': 'gas', 'display_name': 'Gas', 'icon': 'gas'}, {'name': 'diesel', 'display_name': 'Diesel', 'icon': 'diesel'}, {'name': 'public_restrooms', 'display_name': 'Public Restrooms', 'icon': 'public_restrooms'}, {'name': 'coffee', 'display_name': 'Coffee', 'icon': 'coffee'}, {'name': 'froster', 'display_name': 'Froster', 'icon': 'froster'}, {'name': 'sloche', 'display_name': 'Sloche', 'icon': 'sloche'}, {'name': 'hotdog', 'display_name': 'Hotdog', 'icon': 'hotdog'}]"
6002075,0,5197 EAST RIVER ROAD,NEW GLASGOW,45.5675600,-62.6448140,0,,Couche-Tard,OPEN,quebec,quebec,530.5089535896914,CA,/store-locator/CA/new-glasgow/5197-east-river-road/6002075,"[{'name': 'gas', 'display_name': 'Gas', 'icon': 'gas'}, {'name': 'diesel', 'display_name': 'Diesel', 'icon': 'diesel'}, {'name': 'public_restrooms', 'display_name': 'Public Restrooms', 'icon': 'public_restrooms'}, {'name': 'coffee', 'display_name': 'Coffee', 'icon': 'coffee'}, {'name': 'froster', 'display_name': 'Froster', 'icon': 'froster'}, {'name': 'sloche', 'display_name': 'Sloche', 'icon': 'sloche'}, {'name': 'hotdog', 'display_name': 'Hotdog', 'icon': 'hotdog'}]"
6002507,0,3084 HWY 104,ANTIGONISH,45.6134530,-62.0094580,0,,Couche-Tard,OPEN,quebec,quebec,560.8225655557652,CA,/store-locator/CA/antigonish/3084-hwy-104/6002507,"[{'name': 'car_wash', 'display_name': 'Car Wash', 'icon': 'car_wash'}, {'name': 'gas', 'display_name': 'Gas', 'icon': 'gas'}, {'name': 'public_restrooms', 'display_name': 'Public Restrooms', 'icon': 'public_restrooms'}, {'name': 'coffee', 'display_name': 'Coffee', 'icon': 'coffee'}, {'name': 'froster', 'display_name': 'Froster', 'icon': 'froster'}, {'name': 'sloche', 'display_name': 'Sloche', 'icon': 'sloche'}]"
6002508,0,308 MAIN STREET,ANTIGONISH,45.6226460,-61.9928330,0,,Couche-Tard,OPEN,quebec,quebec,561.5435153187593,CA,/store-locator/CA/antigonish/308-main-street/6002508,"[{'name': 'gas', 'display_name': 'Gas', 'icon': 'gas'}, {'name': 'public_restrooms', 'display_name': 'Public Restrooms', 'icon': 'public_restrooms'}]"
6002074,0,13239 ROUTE 104,AULDS COVE,45.6488040,-61.4393930,0,,Couche-Tard,OPEN,quebec,quebec,588.0432832242748,CA,/store-locator/CA/aulds-cove/13239-route-104/6002074,"[{'name': 'gas', 'display_name': 'Gas', 'icon': 'gas'}, {'name': 'diesel', 'display_name': 'Diesel', 'icon': 'diesel'}, {'name': 'public_restrooms', 'display_name': 'Public Restrooms', 'icon': 'public_restrooms'}, {'name': 'coffee', 'display_name': 'Coffee', 'icon': 'coffee'}, {'name': 'froster', 'display_name': 'Froster', 'icon': 'froster'}, {'name': 'sloche', 'display_name': 'Sloche', 'icon': 'sloche'}, {'name': 'fresh_food_fast', 'display_name': 'Fresh Food Fast', 'icon': 'food'}, {'name': 'hotdog', 'display_name': 'Hotdog', 'icon': 'hotdog'}]"
6002123,0,8250 SHORE ROAD,BADDECK,46.0876430,-60.7804820,0,,Couche-Tard,OPEN,quebec,quebec,616.2593959014024,CA,/store-locator/CA/baddeck/8250-shore-road/6002123,"[{'name': 'gas', 'display_name': 'Gas', 'icon': 'gas'}, {'name': 'diesel', 'display_name': 'Diesel', 'icon': 'diesel'}, {'name': 'public_restrooms', 'display_name': 'Public Restrooms', 'icon': 'public_restrooms'}, {'name': 'coffee', 'display_name': 'Coffee', 'icon': 'coffee'}, {'name': 'froster', 'display_name': 'Froster', 'icon': 'froster'}, {'name': 'sloche', 'display_name': 'Sloche', 'icon': 'sloche'}, {'name': 'hotdog', 'display_name': 'Hotdog', 'icon': 'hotdog'}]"
6002077,0,183 COMMERCIAL ST,NORTH SYDNEY,46.2064060,-60.2518890,0,,Couche-Tard,OPEN,quebec,quebec,640.7388663230299,CA,/store-locator/CA/north-sydney/183-commercial-st/6002077,"[{'name': 'gas', 'display_name': 'Gas', 'icon': 'gas'}, {'name': 'diesel', 'display_name': 'Diesel', 'icon': 'diesel'}, {'name': 'public_restrooms', 'display_name': 'Public Restrooms', 'icon': 'public_restrooms'}, {'name': 'coffee', 'display_name': 'Coffee', 'icon': 'coffee'}, {'name': 'froster', 'display_name': 'Froster', 'icon': 'froster'}, {'name': 'sloche', 'display_name': 'Sloche', 'icon': 'sloche'}]"
6002081,0,1948 KINGS ROAD,SYDNEY,46.0874750,-60.2530760,0,,Couche-Tard,OPEN,quebec,quebec,641.4847153287516,CA,/store-locator/CA/sydney/1948-kings-road/6002081,"[{'name': 'gas', 'display_name': 'Gas', 'icon': 'gas'}, {'name': 'diesel', 'display_name': 'Diesel', 'icon': 'diesel'}, {'name': 'public_restrooms', 'display_name': 'Public Restrooms', 'icon': 'public_restrooms'}, {'name': 'coffee', 'display_name': 'Coffee', 'icon': 'coffee'}, {'name': 'froster', 'display_name': 'Froster', 'icon': 'froster'}, {'name': 'sloche', 'display_name': 'Sloche', 'icon': 'sloche'}, {'name': 'hotdog', 'display_name': 'Hotdog', 'icon': 'hotdog'}]"
6002080,0,565 GEORGE ST,SYDNEY,46.1353720,-60.1911420,0,,Couche-Tard,OPEN,quebec,quebec,644.107767454957,CA,/store-locator/CA/sydney/565-george-st/6002080,"[{'name': 'gas', 'display_name': 'Gas', 'icon': 'gas'}, {'name': 'diesel', 'display_name': 'Diesel', 'icon': 'diesel'}, {'name': 'public_restrooms', 'display_name': 'Public Restrooms', 'icon': 'public_restrooms'}, {'name': 'coffee', 'display_name': 'Coffee', 'icon': 'coffee'}, {'name': 'froster', 'display_name': 'Froster', 'icon': 'froster'}, {'name': 'sloche', 'display_name': 'Sloche', 'icon': 'sloche'}, {'name': 'fresh_food_fast', 'display_name': 'Fresh Food Fast', 'icon': 'food'}, {'name': 'hotdog', 'display_name': 'Hotdog', 'icon': 'hotdog'}]"
6002130,0,632 MAIN ST.,GLACE BAY,46.1970180,-59.9578730,0,,Couche-Tard,OPEN,quebec,quebec,654.8227436011234,CA,/store-locator/CA/glace-bay/632-main-st/6002130,"[{'name': 'gas', 'display_name': 'Gas', 'icon': 'gas'}, {'name': 'diesel', 'display_name': 'Diesel', 'icon': 'diesel'}, {'name': 'public_restrooms', 'display_name': 'Public Restrooms', 'icon': 'public_restrooms'}, {'name': 'coffee', 'display_name': 'Coffee', 'icon': 'coffee'}, {'name': 'froster', 'display_name': 'Froster', 'icon': 'froster'}, {'name': 'sloche', 'display_name': 'Sloche', 'icon': 'sloche'}, {'name': 'hotdog', 'display_name': 'Hotdog', 'icon': 'hotdog'}]"
6002099,0,1 HIGH STREET,PORT AUX BASQUES,47.5900840,-59.1616960,0,,Couche-Tard,OPEN,quebec,quebec,688.7519458295138,CA,/store-locator/CA/port-aux-basques/1-high-street/6002099,"[{'name': 'gas', 'display_name': 'Gas', 'icon': 'gas'}, {'name': 'diesel', 'display_name': 'Diesel', 'icon': 'diesel'}, {'name': 'public_restrooms', 'display_name': 'Public Restrooms', 'icon': 'public_restrooms'}, {'name': 'coffee', 'display_name': 'Coffee', 'icon': 'coffee'}, {'name': 'froster', 'display_name': 'Froster', 'icon': 'froster'}, {'name': 'sloche', 'display_name': 'Sloche', 'icon': 'sloche'}]"
6002092,0,5 MILL ROAD,CORNER BROOK,48.9527130,-57.9482750,0,,Couche-Tard,OPEN,quebec,quebec,749.7815421718512,CA,/store-locator/CA/corner-brook/5-mill-road/6002092,"[{'name': 'gas', 'display_name': 'Gas', 'icon': 'gas'}, {'name': 'public_restrooms', 'display_name': 'Public Restrooms', 'icon': 'public_restrooms'}, {'name': 'coffee', 'display_name': 'Coffee', 'icon': 'coffee'}, {'name': 'froster', 'display_name': 'Froster', 'icon': 'froster'}, {'name': 'sloche', 'display_name': 'Sloche', 'icon': 'sloche'}]"
6002525,0,95 MT. BERNARD AVE. PO BOX 276,CORNERBROOK,48.9439000,-57.9423600,0,,Couche-Tard,OPEN,quebec,quebec,749.9614139505554,CA,/store-locator/CA/cornerbrook/95-mt-bernard-ave-po-box-276/6002525,"[{'name': 'gas', 'display_name': 'Gas', 'icon': 'gas'}, {'name': 'public_restrooms', 'display_name': 'Public Restrooms', 'icon': 'public_restrooms'}, {'name': 'coffee', 'display_name': 'Coffee', 'icon': 'coffee'}, {'name': 'froster', 'display_name': 'Froster', 'icon': 'froster'}, {'name': 'sloche', 'display_name': 'Sloche', 'icon': 'sloche'}]"
6002093,0,8 CONFEDERATION DRIVE,CORNER BROOK,48.9420970,-57.9165200,0,,Couche-Tard,OPEN,quebec,quebec,751.0585257199334,CA,/store-locator/CA/corner-brook/8-confederation-drive/6002093,"[{'name': 'gas', 'display_name': 'Gas', 'icon': 'gas'}, {'name': 'diesel', 'display_name': 'Diesel', 'icon': 'diesel'}, {'name': 'public_restrooms', 'display_name': 'Public Restrooms', 'icon': 'public_restrooms'}, {'name': 'coffee', 'display_name': 'Coffee', 'icon': 'coffee'}, {'name': 'froster', 'display_name': 'Froster', 'icon': 'froster'}, {'name': 'sloche', 'display_name': 'Sloche', 'icon': 'sloche'}]"
6002094,0,62 TRANS CANADA HIGHWAY,DEER LAKE,49.1882320,-57.4264650,0,,Couche-Tard,OPEN,quebec,quebec,774.1715814175873,CA,/store-locator/CA/deer-lake/62-trans-canada-highway/6002094,"[{'name': 'gas', 'display_name': 'Gas', 'icon': 'gas'}, {'name': 'diesel', 'display_name': 'Diesel', 'icon': 'diesel'}, {'name': 'public_restrooms', 'display_name': 'Public Restrooms', 'icon': 'public_restrooms'}, {'name': 'coffee', 'display_name': 'Coffee', 'icon': 'coffee'}, {'name': 'froster', 'display_name': 'Froster', 'icon': 'froster'}, {'name': 'sloche', 'display_name': 'Sloche', 'icon': 'sloche'}, {'name': 'hotdog', 'display_name': 'Hotdog', 'icon': 'hotdog'}]"
6002526,0,41 UNION STREET,GRAND FALLS WINDSOR,48.9324460,-55.6481790,0,,Couche-Tard,OPEN,quebec,quebec,849.3014337112533,CA,/store-locator/CA/grand-falls-windsor/41-union-street/6002526,"[{'name': 'gas', 'display_name': 'Gas', 'icon': 'gas'}, {'name': 'public_restrooms', 'display_name': 'Public Restrooms', 'icon': 'public_restrooms'}, {'name': 'coffee', 'display_name': 'Coffee', 'icon': 'coffee'}, {'name': 'froster', 'display_name': 'Froster', 'icon': 'froster'}, {'name': 'sloche', 'display_name': 'Sloche', 'icon': 'sloche'}, {'name': 'hotdog', 'display_name': 'Hotdog', 'icon': 'hotdog'}]"
6002097,0,100 TRANSCANADA HIGHWAY,BISHOPS FALLS,49.0091550,-55.5081100,0,,Couche-Tard,OPEN,quebec,quebec,855.6834158666031,CA,/store-locator/CA/bishops-falls/100-transcanada-highway/6002097,"[{'name': 'gas', 'display_name': 'Gas', 'icon': 'gas'}, {'name': 'diesel', 'display_name': 'Diesel', 'icon': 'diesel'}, {'name': 'public_restrooms', 'display_name': 'Public Restrooms', 'icon': 'public_restrooms'}, {'name': 'coffee', 'display_name': 'Coffee', 'icon': 'coffee'}, {'name': 'froster', 'display_name': 'Froster', 'icon': 'froster'}, {'name': 'sloche', 'display_name': 'Sloche', 'icon': 'sloche'}, {'name': 'hotdog', 'display_name': 'Hotdog', 'icon': 'hotdog'}]"
6002095,0,104 TRANS CANADA HIGHWAY,GANDER,48.9498430,-54.6169560,0,,Couche-Tard,OPEN,quebec,quebec,894.377566632919,CA,/store-locator/CA/gander/104-trans-canada-highway/6002095,"[{'name': 'gas', 'display_name': 'Gas', 'icon': 'gas'}, {'name': 'diesel', 'display_name': 'Diesel', 'icon': 'diesel'}, {'name': 'public_restrooms', 'display_name': 'Public Restrooms', 'icon': 'public_restrooms'}, {'name': 'coffee', 'display_name': 'Coffee', 'icon': 'coffee'}, {'name': 'froster', 'display_name': 'Froster', 'icon': 'froster'}, {'name': 'sloche', 'display_name': 'Sloche', 'icon': 'sloche'}]"
6002090,0,130 TRANS CANADA HIGHWAY,CLARENVILLE,48.1449300,-53.9559420,0,,Couche-Tard,OPEN,quebec,quebec,924.5500044663355,CA,/store-locator/CA/clarenville/130-trans-canada-highway/6002090,"[{'name': 'gas', 'display_name': 'Gas', 'icon': 'gas'}, {'name': 'diesel', 'display_name': 'Diesel', 'icon': 'diesel'}, {'name': 'public_restrooms', 'display_name': 'Public Restrooms', 'icon': 'public_restrooms'}, {'name': 'coffee', 'display_name': 'Coffee', 'icon': 'coffee'}, {'name': 'froster', 'display_name': 'Froster', 'icon': 'froster'}, {'name': 'sloche', 'display_name': 'Sloche', 'icon': 'sloche'}]"
6002091,0,162 TRANS CANADA HIGHWAY,GOOBIES,47.9456670,-53.9507460,0,,Couche-Tard,OPEN,quebec,quebec,925.6132281309035,CA,/store-locator/CA/goobies/162-trans-canada-highway/6002091,"[{'name': 'gas', 'display_name': 'Gas', 'icon': 'gas'}, {'name': 'diesel', 'display_name': 'Diesel', 'icon': 'diesel'}, {'name': 'public_restrooms', 'display_name': 'Public Restrooms', 'icon': 'public_restrooms'}, {'name': 'coffee', 'display_name': 'Coffee', 'icon': 'coffee'}, {'name': 'froster', 'display_name': 'Froster', 'icon': 'froster'}, {'name': 'sloche', 'display_name': 'Sloche', 'icon': 'sloche'}, {'name': 'hotdog', 'display_name': 'Hotdog', 'icon': 'hotdog'}]"
6002128,0,679 WHITBOURNE ROAD,WHITBOURNE,47.4178000,-53.5316160,0,,Couche-Tard,OPEN,quebec,quebec,948.2040096846499,CA,/store-locator/CA/whitbourne/679-whitbourne-road/6002128,"[{'name': 'gas', 'display_name': 'Gas', 'icon': 'gas'}, {'name': 'diesel', 'display_name': 'Diesel', 'icon': 'diesel'}, {'name': 'public_restrooms', 'display_name': 'Public Restrooms', 'icon': 'public_restrooms'}, {'name': 'coffee', 'display_name': 'Coffee', 'icon': 'coffee'}, {'name': 'froster', 'display_name': 'Froster', 'icon': 'froster'}, {'name': 'sloche', 'display_name': 'Sloche', 'icon': 'sloche'}, {'name': 'hotdog', 'display_name': 'Hotdog', 'icon': 'hotdog'}]"
6002522,0,151 CONCEPTION BAY HWY,BAY ROBERTS,47.5807270,-53.2793200,0,,Couche-Tard,OPEN,quebec,quebec,958.5960815303247,CA,/store-locator/CA/bay-roberts/151-conception-bay-hwy/6002522,"[{'name': 'car_wash', 'display_name': 'Car Wash', 'icon': 'car_wash'}, {'name': 'gas', 'display_name': 'Gas', 'icon': 'gas'}, {'name': 'diesel', 'display_name': 'Diesel', 'icon': 'diesel'}, {'name': 'public_restrooms', 'display_name': 'Public Restrooms', 'icon': 'public_restrooms'}, {'name': 'froster', 'display_name': 'Froster', 'icon': 'froster'}, {'name': 'sloche', 'display_name': 'Sloche', 'icon': 'sloche'}]"
6002098,0,55 CONCEPTION BAY NORTH HWAY,CLARKES BEACH,47.5439100,-53.2778700,0,,Couche-Tard,OPEN,quebec,quebec,958.943049508735,CA,/store-locator/CA/clarkes-beach/55-conception-bay-north-hway/6002098,"[{'name': 'gas', 'display_name': 'Gas', 'icon': 'gas'}, {'name': 'diesel', 'display_name': 'Diesel', 'icon': 'diesel'}, {'name': 'public_restrooms', 'display_name': 'Public Restrooms', 'icon': 'public_restrooms'}, {'name': 'coffee', 'display_name': 'Coffee', 'icon': 'coffee'}, {'name': 'froster', 'display_name': 'Froster', 'icon': 'froster'}, {'name': 'sloche', 'display_name': 'Sloche', 'icon': 'sloche'}]"
6002112,0,377 CONCEPTION BAY HIGHWAY,HOLYROOD,47.3897820,-53.1212750,0,,Couche-Tard,OPEN,quebec,quebec,967.4473480478202,CA,/store-locator/CA/holyrood/377-conception-bay-highway/6002112,"[{'name': 'gas', 'display_name': 'Gas', 'icon': 'gas'}, {'name': 'diesel', 'display_name': 'Diesel', 'icon': 'diesel'}, {'name': 'public_restrooms', 'display_name': 'Public Restrooms', 'icon': 'public_restrooms'}, {'name': 'coffee', 'display_name': 'Coffee', 'icon': 'coffee'}, {'name': 'froster', 'display_name': 'Froster', 'icon': 'froster'}, {'name': 'sloche', 'display_name': 'Sloche', 'icon': 'sloche'}, {'name': 'hotdog', 'display_name': 'Hotdog', 'icon': 'hotdog'}]"
6002524,0,695 CONCEPTION BAY HWY,CONCEPTION BAY SOUTH,47.5032100,-53.0113810,0,,Couche-Tard,OPEN,quebec,quebec,971.5723273731953,CA,/store-locator/CA/conception-bay-south/695-conception-bay-hwy/6002524,"[{'name': 'car_wash', 'display_name': 'Car Wash', 'icon': 'car_wash'}, {'name': 'gas', 'display_name': 'Gas', 'icon': 'gas'}, {'name': 'diesel', 'display_name': 'Diesel', 'icon': 'diesel'}, {'name': 'public_restrooms', 'display_name': 'Public Restrooms', 'icon': 'public_restrooms'}, {'name': 'coffee', 'display_name': 'Coffee', 'icon': 'coffee'}, {'name': 'froster', 'display_name': 'Froster', 'icon': 'froster'}, {'name': 'sloche', 'display_name': 'Sloche', 'icon': 'sloche'}]"
6002523,0,265 CONCEPTION BAY HWY,CONCEPTION BAY SOUTH,47.5127070,-52.9683290,0,,Couche-Tard,OPEN,quebec,quebec,973.4827630070021,CA,/store-locator/CA/conception-bay-south/265-conception-bay-hwy/6002523,"[{'name': 'gas', 'display_name': 'Gas', 'icon': 'gas'}, {'name': 'diesel', 'display_name': 'Diesel', 'icon': 'diesel'}, {'name': 'public_restrooms', 'display_name': 'Public Restrooms', 'icon': 'public_restrooms'}, {'name': 'coffee', 'display_name': 'Coffee', 'icon': 'coffee'}, {'name': 'froster', 'display_name': 'Froster', 'icon': 'froster'}, {'name': 'sloche', 'display_name': 'Sloche', 'icon': 'sloche'}, {'name': 'hotdog', 'display_name': 'Hotdog', 'icon': 'hotdog'}]"
6002105,0,16-24 CONCEPTION BAY HWY,MANUELS,47.5209000,-52.9473740,0,,Couche-Tard,OPEN,quebec,quebec,974.3828705125956,CA,/store-locator/CA/manuels/16-24-conception-bay-hwy/6002105,"[{'name': 'gas', 'display_name': 'Gas', 'icon': 'gas'}, {'name': 'diesel', 'display_name': 'Diesel', 'icon': 'diesel'}, {'name': 'public_restrooms', 'display_name': 'Public Restrooms', 'icon': 'public_restrooms'}, {'name': 'coffee', 'display_name': 'Coffee', 'icon': 'coffee'}, {'name': 'froster', 'display_name': 'Froster', 'icon': 'froster'}, {'name': 'sloche', 'display_name': 'Sloche', 'icon': 'sloche'}, {'name': 'hotdog', 'display_name': 'Hotdog', 'icon': 'hotdog'}]"
6002553,0,1641 TOPSAIL ROAD,PARADISE,47.5265490,-52.8735680,0,,Couche-Tard,OPEN,quebec,quebec,977.7444972729218,CA,/store-locator/CA/paradise/1641-topsail-road/6002553,"[{'name': 'gas', 'display_name': 'Gas', 'icon': 'gas'}, {'name': 'diesel', 'display_name': 'Diesel', 'icon': 'diesel'}, {'name': 'public_restrooms', 'display_name': 'Public Restrooms', 'icon': 'public_restrooms'}, {'name': 'atm', 'display_name': 'ATM', 'icon': 'atm'}, {'name': 'coffee', 'display_name': 'Coffee', 'icon': 'coffee'}, {'name': 'froster', 'display_name': 'Froster', 'icon': 'froster'}, {'name': 'sloche', 'display_name': 'Sloche', 'icon': 'sloche'}, {'name': 'fresh_food_fast', 'display_name': 'Fresh Food Fast', 'icon': 'food'}, {'name': 'hotdog', 'display_name': 'Hotdog', 'icon': 'hotdog'}]"
6002110,0,TRANS CANADA HIGHWAY,DONOVANS,47.5040440,-52.8592930,0,,Couche-Tard,OPEN,quebec,quebec,978.5931596888375,CA,/store-locator/CA/donovans/trans-canada-highway/6002110,"[{'name': 'gas', 'display_name': 'Gas', 'icon': 'gas'}, {'name': 'public_restrooms', 'display_name': 'Public Restrooms', 'icon': 'public_restrooms'}, {'name': 'coffee', 'display_name': 'Coffee', 'icon': 'coffee'}, {'name': 'froster', 'display_name': 'Froster', 'icon': 'froster'}, {'name': 'sloche', 'display_name': 'Sloche', 'icon': 'sloche'}, {'name': 'hotdog', 'display_name': 'Hotdog', 'icon': 'hotdog'}]"
6002102,0,1366 TOPSAIL RD,PARADISE,47.5352500,-52.8480990,0,,Couche-Tard,OPEN,quebec,quebec,978.8479683011553,CA,/store-locator/CA/paradise/1366-topsail-rd/6002102,"[{'name': 'gas', 'display_name': 'Gas', 'icon': 'gas'}, {'name': 'diesel', 'display_name': 'Diesel', 'icon': 'diesel'}, {'name': 'public_restrooms', 'display_name': 'Public Restrooms', 'icon': 'public_restrooms'}, {'name': 'coffee', 'display_name': 'Coffee', 'icon': 'coffee'}, {'name': 'froster', 'display_name': 'Froster', 'icon': 'froster'}, {'name': 'sloche', 'display_name': 'Sloche', 'icon': 'sloche'}, {'name': 'hotdog', 'display_name': 'Hotdog', 'icon': 'hotdog'}]"
6002528,0,1429 PORTUGAL COVE ROAD,PORTUGAL COVE,47.6113550,-52.8227620,0,,Couche-Tard,OPEN,quebec,quebec,979.3948444255103,CA,/store-locator/CA/portugal-cove/1429-portugal-cove-road/6002528,"[{'name': 'gas', 'display_name': 'Gas', 'icon': 'gas'}, {'name': 'public_restrooms', 'display_name': 'Public Restrooms', 'icon': 'public_restrooms'}, {'name': 'coffee', 'display_name': 'Coffee', 'icon': 'coffee'}, {'name': 'froster', 'display_name': 'Froster', 'icon': 'froster'}, {'name': 'sloche', 'display_name': 'Sloche', 'icon': 'sloche'}, {'name': 'pastries', 'display_name': 'Pastries', 'icon': 'pastries'}, {'name': 'hotdog', 'display_name': 'Hotdog', 'icon': 'hotdog'}]"
6002527,0,14 COMMONWEALTH AVE.,MOUNT PEARL,47.5201030,-52.8078950,0,,Couche-Tard,OPEN,quebec,quebec,980.8318589306613,CA,/store-locator/CA/mount-pearl/14-commonwealth-ave/6002527,"[{'name': 'gas', 'display_name': 'Gas', 'icon': 'gas'}, {'name': 'public_restrooms', 'display_name': 'Public Restrooms', 'icon': 'public_restrooms'}, {'name': 'coffee', 'display_name': 'Coffee', 'icon': 'coffee'}, {'name': 'froster', 'display_name': 'Froster', 'icon': 'froster'}, {'name': 'sloche', 'display_name': 'Sloche', 'icon': 'sloche'}, {'name': 'hotdog', 'display_name': 'Hotdog', 'icon': 'hotdog'}]"
6002107,0,22 COMMONWEALTH AVENUE,MOUNT PEARL,47.5189320,-52.8080430,0,,Couche-Tard,OPEN,quebec,quebec,980.8349369756353,CA,/store-locator/CA/mount-pearl/22-commonwealth-avenue/6002107,"[{'name': 'gas', 'display_name': 'Gas', 'icon': 'gas'}, {'name': 'public_restrooms', 'display_name': 'Public Restrooms', 'icon': 'public_restrooms'}, {'name': 'coffee', 'display_name': 'Coffee', 'icon': 'coffee'}, {'name': 'froster', 'display_name': 'Froster', 'icon': 'froster'}, {'name': 'sloche', 'display_name': 'Sloche', 'icon': 'sloche'}]"
6002106,0,632 TOPSAIL RD,ST JOHN'S,47.5257640,-52.7694790,0,,Couche-Tard,OPEN,quebec,quebec,982.558277128843,CA,/store-locator/CA/st-john-s/632-topsail-rd/6002106,"[{'name': 'gas', 'display_name': 'Gas', 'icon': 'gas'}, {'name': 'diesel', 'display_name': 'Diesel', 'icon': 'diesel'}, {'name': 'public_restrooms', 'display_name': 'Public Restrooms', 'icon': 'public_restrooms'}, {'name': 'coffee', 'display_name': 'Coffee', 'icon': 'coffee'}, {'name': 'froster', 'display_name': 'Froster', 'icon': 'froster'}, {'name': 'sloche', 'display_name': 'Sloche', 'icon': 'sloche'}, {'name': 'hotdog', 'display_name': 'Hotdog', 'icon': 'hotdog'}]"
6002100,0,32 FRECKER DR.,ST JOHN'S,47.5401000,-52.7575960,0,,Couche-Tard,OPEN,quebec,quebec,982.9856791995724,CA,/store-locator/CA/st-john-s/32-frecker-dr/6002100,"[{'name': 'gas', 'display_name': 'Gas', 'icon': 'gas'}, {'name': 'public_restrooms', 'display_name': 'Public Restrooms', 'icon': 'public_restrooms'}, {'name': 'coffee', 'display_name': 'Coffee', 'icon': 'coffee'}, {'name': 'froster', 'display_name': 'Froster', 'icon': 'froster'}, {'name': 'sloche', 'display_name': 'Sloche', 'icon': 'sloche'}, {'name': 'hotdog', 'display_name': 'Hotdog', 'icon': 'hotdog'}]"
6002529,0,52 KENMOUNT ROAD,ST.JOHN'S,47.5592230,-52.7529890,0,,Couche-Tard,OPEN,quebec,quebec,983.037821180668,CA,/store-locator/CA/st-john-s/52-kenmount-road/6002529,"[{'name': 'gas', 'display_name': 'Gas', 'icon': 'gas'}, {'name': 'diesel', 'display_name': 'Diesel', 'icon': 'diesel'}, {'name': 'public_restrooms', 'display_name': 'Public Restrooms', 'icon': 'public_restrooms'}, {'name': 'coffee', 'display_name': 'Coffee', 'icon': 'coffee'}, {'name': 'froster', 'display_name': 'Froster', 'icon': 'froster'}, {'name': 'sloche', 'display_name': 'Sloche', 'icon': 'sloche'}]"
6002103,0,8 BAY BULLS HWY,ST JOHN'S,47.5237500,-52.7489030,0,,Couche-Tard,OPEN,quebec,quebec,983.5257766531773,CA,/store-locator/CA/st-john-s/8-bay-bulls-hwy/6002103,"[{'name': 'gas', 'display_name': 'Gas', 'icon': 'gas'}, {'name': 'diesel', 'display_name': 'Diesel', 'icon': 'diesel'}, {'name': 'public_restrooms', 'display_name': 'Public Restrooms', 'icon': 'public_restrooms'}, {'name': 'coffee', 'display_name': 'Coffee', 'icon': 'coffee'}, {'name': 'froster', 'display_name': 'Froster', 'icon': 'froster'}, {'name': 'sloche', 'display_name': 'Sloche', 'icon': 'sloche'}]"
6002113,0,1206 TORBAY ROAD,TORBAY,47.6529100,-52.7251200,0,,Couche-Tard,OPEN,quebec,quebec,983.5591948926206,CA,/store-locator/CA/torbay/1206-torbay-road/6002113,"[{'name': 'gas', 'display_name': 'Gas', 'icon': 'gas'}, {'name': 'diesel', 'display_name': 'Diesel', 'icon': 'diesel'}, {'name': 'public_restrooms', 'display_name': 'Public Restrooms', 'icon': 'public_restrooms'}, {'name': 'coffee', 'display_name': 'Coffee', 'icon': 'coffee'}, {'name': 'froster', 'display_name': 'Froster', 'icon': 'froster'}, {'name': 'sloche', 'display_name': 'Sloche', 'icon': 'sloche'}]"
6002530,0,279 PORTUGAL COVE ROAD,ST. JOHN'S,47.5944670,-52.7271330,0,,Couche-Tard,OPEN,quebec,quebec,983.938357736579,CA,/store-locator/CA/st-john-s/279-portugal-cove-road/6002530,"[{'name': 'gas', 'display_name': 'Gas', 'icon': 'gas'}, {'name': 'public_restrooms', 'display_name': 'Public Restrooms', 'icon': 'public_restrooms'}, {'name': 'coffee', 'display_name': 'Coffee', 'icon': 'coffee'}, {'name': 'froster', 'display_name': 'Froster', 'icon': 'froster'}, {'name': 'sloche', 'display_name': 'Sloche', 'icon': 'sloche'}]"
6002101,0,2 STAVANGER DR,ST JOHN'S,47.6142000,-52.7219950,0,,Couche-Tard,OPEN,quebec,quebec,984.013902335419,CA,/store-locator/CA/st-john-s/2-stavanger-dr/6002101,"[{'name': 'gas', 'display_name': 'Gas', 'icon': 'gas'}, {'name': 'public_restrooms', 'display_name': 'Public Restrooms', 'icon': 'public_restrooms'}, {'name': 'coffee', 'display_name': 'Coffee', 'icon': 'coffee'}, {'name': 'froster', 'display_name': 'Froster', 'icon': 'froster'}, {'name': 'sloche', 'display_name': 'Sloche', 'icon': 'sloche'}]"
6002531,0,172 FRESHWATER RD.,ST JOHN'S,47.5635900,-52.7273320,0,,Couche-Tard,OPEN,quebec,quebec,984.1851138775729,CA,/store-locator/CA/st-john-s/172-freshwater-rd/6002531,"[{'name': 'gas', 'display_name': 'Gas', 'icon': 'gas'}, {'name': 'diesel', 'display_name': 'Diesel', 'icon': 'diesel'}, {'name': 'public_restrooms', 'display_name': 'Public Restrooms', 'icon': 'public_restrooms'}, {'name': 'coffee', 'display_name': 'Coffee', 'icon': 'coffee'}, {'name': 'froster', 'display_name': 'Froster', 'icon': 'froster'}, {'name': 'sloche', 'display_name': 'Sloche', 'icon': 'sloche'}, {'name': 'hotdog', 'display_name': 'Hotdog', 'icon': 'hotdog'}]"
6002104,0,71 ELIZABETH AVE,ST JOHN'S,47.5817380,-52.7126790,0,,Couche-Tard,OPEN,quebec,quebec,984.709810483564,CA,/store-locator/CA/st-john-s/71-elizabeth-ave/6002104,"[{'name': 'car_wash', 'display_name': 'Car Wash', 'icon': 'car_wash'}, {'name': 'gas', 'display_name': 'Gas', 'icon': 'gas'}, {'name': 'public_restrooms', 'display_name': 'Public Restrooms', 'icon': 'public_restrooms'}, {'name': 'coffee', 'display_name': 'Coffee', 'icon': 'coffee'}, {'name': 'froster', 'display_name': 'Froster', 'icon': 'froster'}, {'name': 'sloche', 'display_name': 'Sloche', 'icon': 'sloche'}, {'name': 'hotdog', 'display_name': 'Hotdog', 'icon': 'hotdog'}]"
6002108,0,184 TORBAY RD,ST JOHN'S,47.5950000,-52.7088870,0,,Couche-Tard,OPEN,quebec,quebec,984.7750077613308,CA,/store-locator/CA/st-john-s/184-torbay-rd/6002108,"[{'name': 'gas', 'display_name': 'Gas', 'icon': 'gas'}, {'name': 'diesel', 'display_name': 'Diesel', 'icon': 'diesel'}, {'name': 'public_restrooms', 'display_name': 'Public Restrooms', 'icon': 'public_restrooms'}, {'name': 'coffee', 'display_name': 'Coffee', 'icon': 'coffee'}, {'name': 'froster', 'display_name': 'Froster', 'icon': 'froster'}, {'name': 'sloche', 'display_name': 'Sloche', 'icon': 'sloche'}, {'name': 'hotdog', 'display_name': 'Hotdog', 'icon': 'hotdog'}]"
6002533,0,108 GEORGE ST. WEST,ST-JOHN'S,47.5586780,-52.7130630,0,,Couche-Tard,OPEN,quebec,quebec,984.8846751343644,CA,/store-locator/CA/st-john-s/108-george-st-west/6002533,"[{'name': 'car_wash', 'display_name': 'Car Wash', 'icon': 'car_wash'}, {'name': 'gas', 'display_name': 'Gas', 'icon': 'gas'}, {'name': 'public_restrooms', 'display_name': 'Public Restrooms', 'icon': 'public_restrooms'}, {'name': 'coffee', 'display_name': 'Coffee', 'icon': 'coffee'}, {'name': 'froster', 'display_name': 'Froster', 'icon': 'froster'}, {'name': 'sloche', 'display_name': 'Sloche', 'icon': 'sloche'}]"
